id,location_id,address_1,address_2,city,state_province,postal_code,country
1,1,"1780 SE Lincoln Ave",,"Port Orchard",WA,98366,US
2,2,"3670 Chico Way",,Bremerton,WA,98312,US
3,3,"720 Levee St",,Hoquiam,WA,98550,US
4,4,"405 E Heron St",,Aberdeen,WA,98520,US
5,5,"513 N G St",,Aberdeen,WA,98520,US
6,6,"117 E 3rd Street",,Aberdeen,WA,98520,US
7,7,"151 Corey St",,Brinnon,WA,98320,US
8,8,"9594 Mickelberry Rd NW",,Silverdale,WA,98383,US
9,9,"1012 Mitchell Ave",,"Port Orchard",WA,98366,US
10,10,"1950 Mile Hill Dr",,"Port Orchard",WA,98366,US
11,11,"No Physical Address",,Silverdale,WA,98383,US
12,12,"263 4th St",,Bremerton,WA,98337,US
13,13,"2815 2nd Ave Suite 280",,Seattle,WA,98121,US
14,14,"No Physical Address",,"Rolling Bay",WA,98061,US
15,15,"No Physical Address",,Bremerton,WA,98312,US
16,16,"711 Ness Corner",,"Port Townsend",WA,98368,US
17,17,"1020 Jefferson St",,"Port Townsend",WA,98368,US
18,18,"1415 Lumsden Rd",,"Port Orchard",WA,98367,US
19,19,"5802 Willmont St",,Bremerton,WA,98312,US
20,20,"105 Winslow Way W",,"Bainbridge Island",WA,98110,US
21,21,"220 Parfitt Way",,"Bainbridge Island",WA,98110,US
22,22,"18943 Caldart Ave",,Poulsbo,WA,98370,US
23,23,"81 2nd Ave",,Forks,WA,98331,US
24,24,"1500 NE Riddell Rd Suite F",,Bremerton,WA,98310,US
25,25,"5455 Almira Dr NE",,Bremerton,WA,98311,US
26,26,"306 1/2 N I St",,Aberdeen,WA,98520,US
27,27,"210 W Franklin St",,Shelton,WA,98584,US
28,28,"75 East Campus Rd",,Belfair,WA,98528,US
29,29,"2233 Jefferson St",,Shelton,WA,98584,US
30,30,"514 Broadway Ave E",,Montesano,WA,98563,US
31,31,"2505 Olympic Hwy N Suite 440",,Shelton,WA,98584,US
32,32,"810 State Route 101",,Chinook,WA,98614,US
33,33,"3134 State Route 109",,"Copalis Beach",WA,98535,US
34,34,"2306 Sumner Ave",,Hoquiam,WA,98563,US
35,35,"79 Elkins Rd",,"Port Hadlock",WA,98339,US
36,36,"23780 State Route 3",,Belfair,WA,98528,US
37,37,"40 NE Old Belfair Highway",,Belfair,WA,98528,US
38,38,"216 W Cota St",,Shelton,WA,98584,US
39,39,"205 W Cota St",,Shelton,WA,98584,US
40,40,"22653 State Route 3",,Belfair,WA,98528,US
41,41,"7362 E State Route 106",,Union,WA,98592,US
42,42,"107 N 8th St",,Shelton,WA,98584,US
43,43,"331 N Finch Creek Rd",,Hoodsport,WA,98548,US
44,44,"720 K St",,Hoquiam,WA,98550,US
45,45,"22871 NE State Route 3",,Belfair,WA,98528,US
46,46,"32 McAffe Rd",,Humptulips,WA,98552,US
47,47,"600 E Main St",,Elma,WA,98541,US
48,48,"322 S Birch St",,McCleary,WA,98557,US
49,49,"575 E Main St Bldg 2",,Elma,WA,98541,US
50,50,"22871 NE State Route 3",,Belfair,WA,98528,US
51,51,"100 W Public Works Dr",,Shelton,WA,98584,US
52,52,"415 N 6th St",,Shelton,WA,98584,US
53,53,"415 N 6th St",,Shelton,WA,98584,US
54,54,"133 W Railroad Ave",,Shelton,WA,98584,US
55,55,"190 W Sentry Dr",,Shelton,WA,98584,US
56,56,"71 Sargison Loop",,Shelton,WA,98584,US
57,57,"790 E John's Prairie Rd",,Shelton,WA,98584,US
58,58,"218 N 1st St",,Shelton,WA,98584,US
59,59,"2300 Kati Court Suite A",,Shelton,WA,98584,US
60,60,"901 Mountain View Dr",,Shelton,WA,98584,US
61,61,"939 Mountain View Dr",,Shelton,WA,98584,US
62,62,"237 Professional Way",,Shelton,WA,98584,US
63,63,"1812 N 13th Loop Rd",,Shelton,WA,98584,US
64,64,"2300 Kati Court Suite C",,Shelton,WA,98584,US
65,65,"901 Mountain View Dr",,Shelton,WA,98584,US
66,66,"1812 N 13th Loop Rd",,Shelton,WA,98584,US
67,67,"247 Professional Way",,Shelton,WA,98584,US
68,68,"218 W Matlock-Brady Rd",,Elma,WA,98541,US
69,69,"2019 Jefferson St",,Shelton,WA,98584,US
70,70,"213 W Spruce Ave",,Montesano,WA,98563,US
71,71,"22471 Highway 3",,Belfair,WA,98528,US
72,72,"937 W Alpine Way",,Shelton,WA,98584,US
73,73,"4576 State Route 109",,"Pacific Beach",WA,98571,US
74,74,"2505 Olympic Highway N #400",,Shelton,WA,98584,US
75,75,"4700 Pacific Way",,Seaview,WA,98644,US
76,76,"116 1st Ave S",,Ilwaco,WA,98624,US
77,77,"214 S 2nd Street",,Shelton,WA,98584,US
78,78,"428 W Cota St",,Shelton,WA,98584,US
79,79,"1900 King St",,Shelton,WA,98584,US
80,80,"93 N Reservation Rd",,Skokomish,WA,98584,US
81,81,"861 N Tribal Center Rd",,Skokomish,WA,98584,US
82,82,"91 N Reservation Rd",,Skokomish,WA,98584,US
83,83,"80 N Tribal Center Rd",,Skokomish,WA,98584,US
84,84,"561 N Tribal Center Rd",,Skokomish,WA,98584,US
85,85,"100 N Tribal Center Rd",,Skokomish,WA,98584,US
86,86,"129 W Cota St",,Shelton,WA,98584,US
87,87,"3104 SE Old Olympic Highway",,Shelton,WA,98584,US
88,88,"210 Pacific Court",,Shelton,WA,98584,US
89,89,"300 Ocean Ave",,Raymond,WA,98577,US
90,90,"2204 Pacific Ave N",,"Long Beach",WA,98631,US
91,91,"201 2nd St",,Raymond,WA,98577,US
92,92,"No Physical Address",,Raymond,WA,98577,US
93,93,"1899 Park Ave",,Raymond,WA,98577,US
94,94,"303 N 4th St",,Shelton,WA,98584,US
95,95,"280 4th St",,Bremerton,WA,98337,US
96,96,"711 Water St",,"Port Townsend",WA,98368,US
97,97,"No Physical Address",,"Port Orchard",WA,98366,US
98,98,"22825 Peissner Rd SE",,Yelm,WA,98597,US
99,99,"No Physical Address",,Silverdale,WA,98383,US
100,100,"No Physical Address",,Poulsbo,WA,98370,US
101,101,"No Physical Address",,Poulsbo,WA,98370,US
102,102,"No Physical Address",,Bremerton,WA,98337,US
103,103,"No Physical Address",,Bremerton,WA,98311,US
104,104,"No Physical Address",,Silverdale,WA,98383,US
105,105,"No Physical Address",,"Port Angeles",WA,98362,US
106,106,"941 Merchant Road",,Forks,WA,98331,US
107,107,"No Physical Address",,Sequim,WA,98382,US
108,108,"1736 NE Riddell Rd Suite 120",,Bremerton,WA,98310,US
109,109,"7625 Central Valley Rd NW",,Bremerton,WA,98311,US
110,110,"26061 United Rd NE",,Kingston,WA,98346,US
111,111,"25990 Barber Cut Off Rd",,Kingston,WA,98346,US
112,112,"3901 SE Mullenix Rd",,"Port Orchard",WA,98367,US
113,113,"525 N 5th Ave",,Sequim,WA,98382,US
114,114,"510 E Park Ave",,"Port Angeles",WA,98362,US
115,115,"508 S Francis St",,"Port Angeles",WA,98362,US
116,116,"600 Park Ave",,Bremerton,WA,98337,US
117,117,"No Physical Address",,Matlock,WA,98560,US
118,118,"940 E Jensen Rd",,Shelton,WA,98584,US
119,119,"201 7th St",,Hoquiam,WA,98550,US
120,120,"No Physical Address",,Silverdale,WA,98383,US
121,121,"4705 Jackson Ave SE",,"Port Orchard",WA,98366,US
122,122,"520 E Park Ave",,"Port Angeles",WA,98362,US
123,123,"1736 NE Riddell Rd  #130",,Bremerton,WA,98310,US
124,124,"1813 Sumner Ave",,Aberdeen,WA,98520,US
125,125,"597 Point Brown Ave NW",,"Ocean Shores",WA,98569,US
126,126,"1815 Sumner Ave",,Aberdeen,WA,98520,US
127,127,"1510 W Main St",,Elma,WA,98541,US
128,128,"824 Ocean Shores Blvd NW",,"Ocean Shores",WA,98569,US
129,129,"615 8th St",,Hoquiam,WA,98550,US
130,130,"120 W Wishkah St",,Aberdeen,WA,98520,US
131,131,"118 W Wishkah St",,Aberdeen,WA,98520,US
132,132,"100 S I St Suite 207",,Aberdeen,WA,98520,US
133,133,"No Physical Location",,"Port Angeles",WA,98362,US
134,134,"112 N Lincoln St",,"Port Angeles",WA,98362,US
135,135,"116 E Ahlvers Rd",,"Port Angeles",WA,98362,US
136,136,"822 Burwell St",,Bremerton,WA,98337,US
137,137,"807A Bay St",,"Port Orchard",WA,98366,US
138,138,"780 NE Iverson St",,Poulsbo,WA,98370,US
139,139,"2901 Barbel St",,Silverdale,WA,98315,US
140,140,"1099 Tautog Circle",,Silverdale,WA,98315,US
141,141,"15 Sekiu Airport Rd",,Sekiu,WA,98381,US
142,142,"31 Spartan Ave",,Forks,WA,98331,US
143,143,"502 S Still Rd",,Sequim,WA,98382,US
144,144,"2431 E Highway 101",,"Port Angeles",WA,98362,US
145,145,"345 6th St Suite 300",,Bremerton,WA,98337,US
146,146,"328 E 7th St",,"Port Angeles",WA,98362,US
147,147,"3537 Anderson Hill Rd NW",,Silverdale,WA,98383,US
148,148,"2203 W 18th St",,"Port Angeles",WA,98363,US
149,149,"287 Founders Way",,Forks,WA,98331,US
150,150,"583 W Washington St",,Sequim,WA,98382,US
151,151,"2321 W 18th St",,"Port Angeles",WA,98363,US
152,152,"520 E 1st St",,"Port Angeles",WA,98362,US
153,153,"502 E 1st St",,"Port Angeles",WA,98362,US
154,154,"551 W Washington St",,Sequim,WA,98382,US
155,155,"19068 Jensen Way NE",,Poulsbo,WA,98370,US
156,156,"736 Bay St",,"Port Orchard",WA,98366,US
157,157,"190 S Dora Ave",,Bremerton,WA,98312,US
158,158,"91 W Valley Rd",,Chimacum,WA,98325,US
159,159,"2817 Wheaton Way Suite 208",,Bremerton,WA,98310,US
160,160,"1700 Myhre Rd",,Bremerton,WA,98311,US
161,161,"4841 Auto Center Way Suite 101",,Bremerton,WA,98312,US
162,162,"9982 Silverdale Way NW",,Silverdale,WA,98383,US
163,163,"614 Division St",,"Port Orchard",WA,98366,US
164,164,"1338 SW Old Clifton Rd",,"Port Orchard",WA,98366,US
165,165,"118 E 8th St",,"Port Angeles",WA,98362,US
166,166,"No Physical Address",,"Port Angeles",WA,98362,US
167,167,"939 Caroline St",,"Port Angeles",WA,98362,US
168,168,"950 N 5th Ave",,Sequim,WA,98382,US
169,169,"884 W Park Ave",,"Port Townsend",WA,98368,US
170,170,"703 NE Hostmark St",,Poulsbo,WA,98370,US
171,171,"945 Hildebrand Ln NE Suite 100",,"Bainbridge Island",WA,98110,US
172,172,"700 Callahan Dr",,Bremerton,WA,98310,US
173,173,"921 Hildebrand Ln",,"Bainbridge Island",WA,98110,US
174,174,"2011 Myhre Rd",,Silverdale,WA,98383,US
175,175,"No Physical Address",,Bremerton,WA,98310,US
176,176,"282 Knechtel Way NE",,"Bainbridge Island",WA,98110,US
177,177,"9530 NE High School Rd",,"Bainbridge Island",WA,98110,US
178,178,"4704 Blakely Ave",,"Bainbridge Island",WA,98110,US
179,179,"8555 Madison Ave NE",,"Bainbridge Island",WA,98110,US
180,180,"9125 Sportsman Club Rd",,"Bainbridge Island",WA,98110,US
181,181,"8489 Madison Ave NE",,"Bainbridge Island",WA,98110,US
182,182,"9330 NE High School Rd",,"Bainbridge Island",WA,98110,US
183,183,"9343 Sportsman Club Rd",,"Bainbridge Island",WA,98110,US
184,184,"12781 Madison Ave NE",,"Bainbridge Island",WA,98110,US
185,185,"215 Erickson Ave NE",,"Bainbridge Island",WA,98110,US
186,186,"625 Winslow Way E",,"Bainbridge Island",WA,98110,US
187,187,"1140 Nipsic Ave",,Bremerton,WA,98310,US
188,188,"6750 Highway 303",,Bremerton,WA,98312,US
189,189,"223 E 4th St Suite 15",,"Port Angeles",WA,98362,US
190,190,"201 W Patison St Suite B",,"Port Hadlock",WA,98339,US
191,191,"102-1/2 E 1st St",,"Port Angeles",WA,98362,US
192,192,"645 4th St Suite 100",,Bremerton,WA,98337,US
193,193,"3560 Deer Street",,"Neah Bay",WA,98357,US
194,194,"13-193 Highway 112",,Sekiu,WA,98381,US
195,195,"16933 Highway 112",,"Clallam Bay",WA,98326,US
196,196,"1260 NE Pinnacle Court",,Silverdale,WA,98383,US
197,197,"7607 Newberry Hill Rd",,Silverdale,WA,98383,US
198,198,"7420 Central Valley Rd",,Bremerton,WA,98311,US
199,199,"9100 Dickey Rd",,Silverdale,WA,98383,US
200,200,"2900 Austin Dr",,Bremerton,WA,98312,US
201,201,"2650 NE John Carlson Rd",,Bremerton,WA,98311,US
202,202,"13200 Olympic View Rd",,Silverdale,WA,98383,US
203,203,"3999 NW Sunde Rd",,Silverdale,WA,98383,US
204,204,"10622 Hillsboro Dr NW",,Silverdale,WA,98383,US
205,205,"5530 Pine Rd NE",,Bremerton,WA,98311,US
206,206,"3860 Boundary Trail NW",,Bremerton,WA,98312,US
207,207,"10120 Frontier Place NW",,Silverdale,WA,98383,US
208,208,"3700 Anderson Hill Rd",,Silverdale,WA,98383,US
209,209,"330 Foster Rd",,Bremerton,WA,98311,US
210,210,"7050 Tibardis Rd",,Bremerton,WA,98311,US
211,211,"9210 Silverdale Way NW",,Silverdale,WA,98383,US
212,212,"10130 Frontier Place NW",,Silverdale,WA,98383,US
213,213,"8107 Central Valley Rd",,Bremerton,WA,98311,US
214,214,"10600 Hillsboro Dr NW",,Silverdale,WA,98383,US
215,215,"10150 Frontier Place NW",,Silverdale,WA,98383,US
216,216,"8795 Illahee Rd",,Bremerton,WA,98311,US
217,217,"7070 Stampede Blvd",,Bremerton,WA,98311,US
218,218,"905 Pacific Ave",,Bremerton,WA,98337,US
219,219,Confidential,,Rollingbay,WA,98061,US
220,220,Confidential,,Bremerton,WA,98337,US
221,221,"42 Rice St",,Sekiu,WA,98381,US
222,222,"328 E 7th St",,"Port Angeles",WA,98362,US
223,223,"921 E Hammond St",,Sequim,WA,98382,US
224,224,"610 N 5th Ave",,Sequim,WA,98382,US
225,225,"1141 Beach Dr",,"Port Orchard",WA,98366,US
226,226,"1141 Beach Dr Building 9",,Retsil,WA,98378,US
227,227,"832 6th St",,Bremerton,WA,98337,US
228,228,"206 S Peabody St",,"Port Angeles",WA,98362,US
229,229,"5300 NW Newberry Hill Rd",,Silverdale,WA,98383,US
230,230,"10452 Silverdale Way",,Silverdale,WA,98383,US
231,231,"1505 Franklin St",,"Port Townsend",WA,98368,US
232,232,"345 6th St Suite 100",,Bremerton,WA,98337,US
233,233,"645 4th St Suite 202",,Bremerton,WA,98337,US
234,234,"90 Resort Dr",,"Neah Bay",WA,98357,US
235,235,"100 Wellness Way",,"Neah Bay",WA,98357,US
236,236,"250 Fort St",,"Neah Bay",WA,98357,US
237,237,"No Physical Address",,"Port Orchard",WA,98366,US
238,238,"2535 Mitchell Rd SE",,"Port Orchard",WA,98366,US
239,239,"900 Sheridan Rd Suite 106",,Bremerton,WA,98310,US
240,240,"4040 Wheaton Way",,Bremerton,WA,98310,US
241,241,"5455 Almira Dr NE",,Bremerton,WA,98311,US
242,242,"5451 Almira Dr NE",,Bremerton,WA,98311,US
243,243,"5441 Almira Dr NE",,Bremerton,WA,98311,US
244,244,"3243 N Perry Ave",,Bremerton,WA,98310,US
245,245,"1025 Burwell St",,Bremerton,WA,98337,US
246,246,"1111 Carr Blvd",,Bremerton,WA,98312,US
247,247,"3428 Burwell St",,Bremerton,WA,98312,US
248,248,"900 Olympic Ave",,Bremerton,WA,98312,US
249,249,"3400 1st St",,Bremerton,WA,98312,US
250,250,"1500 13th St",,Bremerton,WA,98337,US
251,251,"2400 Perry Ave",,Bremerton,WA,98310,US
252,252,"3250 Spruce St",,Bremerton,WA,98310,US
253,253,"1500 Rocky Point Rd",,Bremerton,WA,98312,US
254,254,"800 Dibb St",,Bremerton,WA,98310,US
255,255,"134 Marion Ave N",,Bremerton,WA,98312,US
256,256,"520 National Ave S",,Bremerton,WA,98312,US
257,257,"911 Carver St",,Bremerton,WA,98312,US
258,258,"10255 NE Valley Rd",,"Bainbridge Island",WA,98110,US
259,259,"280 Madison Ave N",,"Bainbridge Island",WA,98110,US
260,260,"500 E Division St",,Forks,WA,98331,US
261,261,"216 Prospect St",,"Port Orchard",WA,98366,US
262,262,"250 Madison St",,"Port Townsend",WA,98368,US
263,263,"1220 Lawrence St",,"Port Townsend",WA,98368,US
264,264,"200 NE Moe St",,Poulsbo,WA,98370,US
265,265,"19540 Front St NE",,Poulsbo,WA,98370,US
266,266,"200 NE Moe St",,Poulsbo,WA,98370,US
267,267,"615 N 5th Ave",,Sequim,WA,98382,US
268,268,"152 W Cedar St",,Sequim,WA,98382,US
269,269,"525 N 5th Ave",,Sequim,WA,98382,US
270,270,"9300 Nels Nelson Rd",,Bremerton,WA,98311,US
271,271,"1820 Jefferson St",,"Port Townsend",WA,98368,US
272,272,"623 Sheridan St",,"Port Townsend",WA,98368,US
273,273,"Jacob Miller Rd",,"Port Townsend",WA,98368,US
274,274,"295312 Highway 101",,Quilcene,WA,98376,US
275,275,"620 Cedar Ave",,"Port Hadlock",WA,98339,US
276,276,"1045 10th St",,"Port Townsend",WA,98368,US
277,277,"118 N Liberty St Suite B",,"Port Angeles",WA,98362,US
278,278,"1600 Chester Ave",,Bremerton,WA,98337,US
279,279,"1000 Olympic College Place NW",,Bremerton,WA,98370,US
280,280,"1975 NE Fuson Rd",,Bremerton,WA,98311,US
281,281,"50350 Highway 112",,Joyce,WA,98343,US
282,282,"9004 Washington Ave NW",,Silverdale,WA,98383,US
283,283,"11212 NE State Highway 104",,Kingston,WA,98346,US
284,284,"3450 NW Carlton St",,Silverdale,WA,98383,US
285,285,"700 NE Lincoln Rd",,Poulsbo,WA,98370,US
286,286,"87 Sidney Ave",,"Port Orchard",WA,98366,US
287,287,"31980 Little Boston Rd NE",,Kingston,WA,98346,US
288,288,"612 5th St",,Bremerton,WA,98337,US
289,289,"1270 Madison Ave N",,"Bainbridge Island",WA,98110,US
290,290,"1301 Sylvan Way",,Bremerton,WA,98310,US
291,291,"8067 E Main St",,Manchester,WA,98353,US
292,292,"No Physical Address",,Quilcene,WA,98376,US
293,293,"294715 Highway 101",,Quilcene,WA,98376,US
294,294,"301 S Elderberry Ave",,Forks,WA,98331,US
295,295,"161 East E St",,Forks,WA,98331,US
296,296,"261 S Spartan Ave",,Forks,WA,98331,US
297,297,"411 S Spartan Ave",,Forks,WA,98331,US
298,298,"121 S Spartan Ave",,Forks,WA,98331,US
299,299,"223 E 4th St Suite 12",,"Port Angeles",WA,98362,US
300,300,"81 Elkins Rd",,"Port Hadlock",WA,98339,US
301,301,Confidential,,Bremerton,WA,98312,US
302,302,"1137 Callow Ave N",,Bremerton,WA,98312,US
303,303,"1209 Bay St",,"Port Orchard",WA,98366,US
304,304,"18943 Caldart Ave NE",,Poulsbo,WA,98370,US
305,305,"1117 Callow Ave N",,Bremerton,WA,98312,US
306,306,"No Physical Location",,"Port Angeles",WA,98362,US
307,307,"No Physical Address",,Sequim,WA,98382,US
308,308,"303 W 8th St",,"Port Angeles",WA,98362,US
309,309,"777 N 5th Ave Suite 106",,Sequim,WA,98382,US
310,310,"840 N 5th Ave Suite 1500",,Sequim,WA,98382,US
311,311,"930 Caroline St",,"Port Angeles",WA,98362,US
312,312,"840 N 5th Ave Suite 1400",,Sequim,WA,98382,US
313,313,"1021 Caroline St",,"Port Angeles",WA,98362,US
314,314,"923 Georgiana St",,"Port Angeles",WA,98362,US
315,315,"321 N Chambers St",,"Port Angeles",WA,98362,US
316,316,"800 N 5th Ave Suite 101",,Sequim,WA,98382,US
317,317,"777 N 5th Ave Suite 300",,Sequim,WA,98382,US
318,318,"800 N 5th Ave Suite 102",,Sequim,WA,98382,US
319,319,"1004 Caroline St",,"Port Angeles",WA,98362,US
320,320,"840 N 5th Ave",,Sequim,WA,98382,US
321,321,"844 N 5th Ave",,Sequim,WA,98382,US
322,322,"927 Georgiana St",,"Port Angeles",WA,98362,US
323,323,"939 Caroline St",,"Port Angeles",WA,98362,US
324,324,"433 E 8th St",,"Port Angeles",WA,98362,US
325,325,"1026 Sidney Ave Suite 105",,"Port Orchard",WA,98366,US
326,326,"9857 Silverdale Way NW",,Silverdale,WA,98383,US
327,327,"71 S Forks Ave",,Forks,WA,98331,US
328,328,"1502 E Lauridsen Blvd",,"Port Angeles",WA,98362,US
329,329,"1195 NW Fairgrounds Rd",,Bremerton,WA,98311,US
330,330,"9729 Silverdale Way NW",,Silverdale,WA,98383,US
331,331,"11212 Sate Highway 104",,Kingston,WA,98346,US
332,332,"1087 NW Island Lake Rd",,Poulsbo,WA,98370,US
333,333,"1200 NW Fairgrounds Rd",,Bremerton,WA,98311,US
334,334,"5448 Long Lake Rd SE",,"Port Orchard",WA,98366,US
335,335,"884 W Park Ave",,"Port Townsend",WA,98368,US
336,336,"341 Bayview Ave",,"Neah Bay",WA,98357,US
337,337,"19319 7th Ave Suite 104",,Poulsbo,WA,98370,US
338,338,"1006 N H St",,Aberdeen,WA,98520,US
339,339,"602 E 1st St",,Aberdeen,WA,98520,US
340,340,"7625 Central Valley Rd NW",,Bremerton,WA,98311,US
341,341,"911 Carver St",,Bremerton,WA,98312,US
342,342,"321 E 5th St",,"Port Angeles",WA,98362,US
343,343,"1469 Blue Mountain Rd",,"Port Angeles",WA,98362,US
344,344,"306144 Highway 101",,Brinnon,WA,98320,US
345,345,"18920 4th Ave #204",,Poulsbo,WA,98370,US
346,346,"616 5th St",,Bremerton,WA,98337,US
347,347,"725 Kitsap St",,"Port Orchard",WA,98366,US
348,348,"525 N 5th Ave",,Sequim,WA,98382,US
349,349,"18972 Front St NE",,Poulsbo,WA,98370,US
350,350,"210 E Market St",,Aberdeen,WA,98520,US
351,351,"1312 1st St",,Cosmopolis,WA,98537,US
352,352,"124 N 3rd St",,Elma,WA,98541,US
353,353,"100 W Broadway Suite 3",,Montesano,WA,98563,US
354,354,"215 10th St",,Hoquiam,WA,98550,US
355,355,"100 S 3rd St",,McCleary,WA,98557,US
356,356,"112 N Main St",,Montesano,WA,98563,US
357,357,"137 W Cuitan St",,Taholah,WA,98587,US
358,358,"740 N Montesano St",,Westport,WA,98595,US
359,359,"728 E Front St",,"Port Angeles",WA,98362,US
360,360,"350 W Washington St",,Sequim,WA,98362,US
361,361,"2001 W Sims Way",,"Port Townsend",WA,98368,US
362,362,"3559 Wheaton Way",,Bremerton,WA,98310,US
363,363,"3451 Wheaton Way",,Bremerton,WA,98310,US
364,364,"1010 Sheridan St Suite 201",,"Port Townsend",WA,98368,US
365,365,"294843 Hwy 101",,Quilcene,WA,98376,US
366,366,"934 Sheridan Ave",,"Port Townsend",WA,98368,US
367,367,"1247 7th St",,"Port Townsend",WA,98368,US
368,368,"9481 Oak Bay Rd Suite A",,"Port Ludlow",WA,98365,US
369,369,"2500 W Sims Way Suite 300",,"Port Townsend",WA,98368,US
370,370,"1010 Sheridan St Suite 202",,"Port Townsend",WA,98368,US
371,371,"1010 Sheridan St Suite 101",,"Port Townsend",WA,98368,US
372,372,"934 Sheridan Ave",,"Port Townsend",WA,98368,US
373,373,"834 Sheridan Ave",,"Port Townsend",WA,98368,US
374,374,"915 Sheridan St Suite B-103",,"Port Townsend",WA,98368,US
375,375,"645 4th St Suite 204",,Bremerton,WA,98337,US
376,376,"112 Critter Lane",,"Port Townsend",WA,98368,US
377,377,"600 E Park Ave",,"Port Angeles",WA,98362,US
378,378,"550 Park Ave",,Bremerton,WA,98337,US
379,379,"100 Oyster Bay Ave N",,Bremerton,WA,98312,US
380,380,"680 Lebo Blvd",,Bremerton,WA,98310,US
381,381,"345 6th St Suite 600",,Bremerton,WA,98337,US
382,382,"502 E Division St",,Forks,WA,98331,US
383,383,"223 E 4th St Suite 7",,"Port Angeles",WA,98362,US
384,384,"223 E 4th St",,"Port Angeles",WA,98362,US
385,385,"302 S Francis St",,"Port Angeles",WA,98362,US
386,386,"1919 Blaine St",,"Port Townsend",WA,98368,US
387,387,"7625 Central Valley Rd",,Bremerton,WA,98312,US
388,388,"500 E Division St",,Forks,WA,98331,US
389,389,"614 Division St MS-37",,"Port Orchard",WA,98366,US
390,390,"3951 Randall Way NW",,Silverdale,WA,98383,US
391,391,"321 E 5th St",,"Port Angeles",WA,98362,US
392,392,"1925 Blaine St Suite 100",,"Port Townsend",WA,98368,US
393,393,"609 W Washington St Suite 16",,Sequim,WA,98382,US
394,394,"7500 Werner Rd",,Bremerton,WA,98312,US
395,395,"402 S Valley St",,"Port Angeles",WA,98362,US
396,396,"1822 W 7th St",,"Port Angeles",WA,98363,US
397,397,"905 W 9th St",,"Port Angeles",WA,98363,US
398,398,"218 E 12th St",,"Port Angeles",WA,98362,US
399,399,"2505 S Washington St",,"Port Angeles",WA,98362,US
400,400,"25 Rife Rd",,"Port Angeles",WA,98363,US
401,401,"1139 W 14th St",,"Port Angeles",WA,98363,US
402,402,"924 W 9th St",,"Port Angeles",WA,98363,US
403,403,"304 E Park Ave",,"Port Angeles",WA,98362,US
404,404,"216 E 4th St",,"Port Angeles",WA,98362,US
405,405,"106 Monroe Rd",,"Port Angeles",WA,98362,US
406,406,"1925 Blaine St",,"Port Townsend",WA,98368,US
407,407,"13693 Hwy 112",,Sekiu,WA,98381,US
408,408,"27089 Highland Rd NE",,Kingston,WA,98346,US
409,409,"15650 Central Valley Rd",,Poulsbo,WA,98370,US
410,410,"22104 Rhododendron Ln NW",,Poulsbo,WA,98370,US
411,411,"18950 Park Ave NE",,Suquamish,WA,98392,US
412,412,"18531 Noll Rd NE",,Poulsbo,WA,98370,US
413,413,"2003 NE Hostmark St",,Poulsbo,WA,98370,US
414,414,"26201 Siyaya Ave NE",,Kingston,WA,98346,US
415,415,"18360 Caldart Ave NE",,Poulsbo,WA,98370,US
416,416,"1780 NE Hostmark St",,Poulsbo,WA,98370,US
417,417,"9000 NE W Kingston Rd",,Kingston,WA,98346,US
418,418,"26331 Barber Cutoff Rd",,Kingston,WA,98346,US
419,419,"1610 Blaine St",,"Port Townsend",WA,98368,US
420,420,"1500 Van Ness St",,"Port Townsend",WA,98368,US
421,421,"3939 San Juan Ave",,"Port Townsend",WA,98368,US
422,422,"1637 Grant St",,"Port Townsend",WA,98368,US
423,423,"294952 Highway 101",,Quilcene,WA,98376,US
424,424,"144 W Alder St",,Sequim,WA,98382,US
425,425,"503 N Sequim Ave",,Sequim,WA,98382,US
426,426,"221 W Fir St",,Sequim,WA,98382,US
427,427,"601 N Sequim Ave",,Sequim,WA,98382,US
428,428,"301 W Hendrickson Rd",,Sequim,WA,98382,US
429,429,"350 W Fir St",,Sequim,WA,98382,US
430,430,"171 Carlsborg Rd",,Sequim,WA,98382,US
431,431,"4183 Sunnyslope Rd SW",,"Port Orchard",WA,98367,US
432,432,"2689 Hoover Ave SE",,"Port Orchard",WA,98366,US
433,433,"1723 Wolves Dr",,"Port Orchard",WA,98366,US
434,434,"2150 Fircrest Dr SE",,"Port Orchard",WA,98366,US
435,435,"2150 Fircrest Dr SE",,"Port Orchard",WA,98366,US
436,436,"425 Mitchell Ave",,"Port Orchard",WA,98366,US
437,437,"1887 Madrona Dr SE",,"Port Orchard",WA,98366,US
438,438,"8995 SE Sedgwick Rd",,"Port Orchard",WA,98366,US
439,439,"2220 Pottery Ave",,"Port Orchard",WA,98366,US
440,440,"500 SW Birch Rd",,"Port Orchard",WA,98367,US
441,441,"2288 Fircrest Dr SE",,"Port Orchard",WA,98366,US
442,442,"6100 SE Denny Bond Blvd",,Olalla,WA,98359,US
443,443,"3900 Mullenix Rd",,"Port Orchard",WA,98367,US
444,444,"1901 California Ave E",,"Port Orchard",WA,98366,US
445,445,"5455 Converse Rd SE",,"Port Orchard",WA,98367,US
446,446,"100 SW Lakeway Blvd",,"Port Orchard",WA,98367,US
447,447,"2649 Hoover Ave SE",,"Port Orchard",WA,98366,US
448,448,"3281 Banner Rd SE",,"Port Orchard",WA,98366,US
449,449,"223 E 4th St Suite 12",,"Port Angeles",WA,98362,US
450,450,"223 E 4th St Suite 20",,"Port Angeles",WA,98362,US
451,451,"2105 W Highway 101",,"Port Angeles",WA,98363,US
452,452,"9167 Dickey Rd NW",,Silverdale,WA,98383,US
453,453,"200 NE Moe St",,Poulsbo,WA,98370,US
454,454,"1270 Madison Ave N",,"Bainbridge Island",WA,98110,US
455,455,"824-A E 8th St",,"Port Angeles",WA,98362,US
456,456,"640 N Sequim Ave",,Sequim,WA,98382,US
457,457,"911 Park Ave",,Bremerton,WA,98337,US
458,458,"250 Madrona Way NE Suite 110",,"Bainbridge Island",WA,98110,US
459,459,"723 NE Riddell Rd Suite A",,Bremerton,WA,98310,US
460,460,"294843 Highway 101",,Quilcene,WA,98376,US
461,461,"615 Sheridan St",,"Port Townsend",WA,98368,US
462,462,"10 West Valley Rd",,Chimacum,WA,98325,US
463,463,"111 E 3rd St Suite 1A",,"Port Angeles",WA,98362,US
464,464,"223 E 4th St",,"Port Angeles",WA,98362,US
465,465,"140 C St",,Forks,WA,98331,US
466,466,"345 6th St Suite 550",,Bremerton,WA,98337,US
467,467,"1 Boone Rd",,Bremerton,WA,98312,US
468,468,"2050 Barb St Suite A",,Silverdale,WA,98315,US
469,469,"No Physical Address",,Silverdale,WA,98383,US
470,470,"No Physical Address",,"Port Townsend",WA,98368,US
471,471,"No Physical Address",,"Port Angeles",WA,98362,US
472,472,"808 N 5th Ave",,Sequim,WA,98382,US
473,473,"1033 Old Blyn Highway",,Sequim,WA,98382,US
474,474,"24 Seton Rd ",,"Port Townsend",WA,98368,US
475,475,"9193 Rhody Dr",,Chimacum,WA,98325,US
476,476,"35 Critter Ln",,"Port Townsend",WA,98368,US
477,477,"701 Harrison St",,"Port Townsend",WA,98368,US
478,478,"4168 Greenfish Court",,Silverdale,WA,98315,US
479,479,"Bldg 781 Wencker Way",,Bremerton,WA,98312,US
480,480,"2508 Wheaton Way",,Bremerton,WA,98310,US
481,481,"616 6th St",,Bremerton,WA,98337,US
482,482,"320 S Kitsap Blvd",,"Port Orchard",WA,98366,US
483,483,"400 Warren Ave Suite 300",,Bremerton,WA,98337,US
484,484,"19917 7th Ave NE Suite 205",,Poulsbo,WA,98370,US
485,485,"1210 E Front St Suite C",,"Port Angeles",WA,98362,US
486,486,"1615 W Sims Way",,"Port Townsend",WA,98368,US
487,487,"700 Callahan Dr",,Bremerton,WA,98310,US
488,488,"1601 E Front St Suite B",,"Port Angeles",WA,98362,US
489,489,"216 S Francis St",,"Port Angeles",WA,98362,US
490,490,"10876 NW Myhre Pl, Suite 116",,Silverdale,WA,98383,US
491,491,"829 K St",,"Port Townsend",WA,98368,US
492,492,"1026 Sidney Ave Suite 110",,"Port Orchard",WA,98366,US
493,493,"4710 Auto Center Blvd",,Bremerton,WA,98312,US
494,494,"201 W 1st St",,"Port Angeles",WA,98362,US
495,495,"421 5th Ave",,Forks,WA,98331,US
496,496,"915 Sheridan St Suite 201",,"Port Townsend",WA,98368,US
497,497,"1003 5th St",,Bremerton,WA,98337,US
498,498,"250 S Cambrian Way",,Bremerton,WA,98312,US
499,499,"285 5th St Suite 2",,Bremerton,WA,98337,US
500,500,"645 4th St Suite 202-A",,Bremerton,WA,98337,US
501,501,"321 E 5th St",,"Port Angeles",WA,98362,US
502,502,"530 Bogachiel Way",,Forks,WA,98331,US
503,503,"74 Bogachiel Way",,"Clallam Bay",WA,98326,US
504,504,"390 Founders Way",,Forks,WA,98331,US
505,505,"461 G St SW",,Forks,WA,98331,US
506,506,"24 Lee Chatfield Ave",,Sequim,WA,98382,US
507,507,"481 5th Ave",,Forks,WA,98331,US
508,508,"351 Founders Way",,Forks,WA,98331,US
509,509,"5210 Kuhn St",,"Port Townsend",WA,98368,US
510,510,"2603 S Francis St",,"Port Angeles",WA,98362,US
511,511,"830 W Lauridsen Blvd",,"Port Angeles",WA,98363,US
512,512,"1740 NE Riddell Rd Suite 180",,Bremerton,WA,98310,US
513,513,"26642 Miller Bay Rd NE",,Kingston,WA,98346,US
514,514,"426 E 8th St",,"Port Angeles",WA,98362,US
515,515,"675 N 5th Ave Suite 2B",,Sequim,WA,98382,US
516,516,"325 E 6th St and 323 E 6th St",,"Port Angeles",WA,98362,US
517,517,"525 N 5th Ave",,Sequim,WA,98382,US
518,518,"1700 SE Mile Hill Dr",,"Port Orchard",WA,98366,US
519,519,"4209 Wheaton Way",,Bremerton,WA,98310,US
520,520,"10001 Mickelberry Rd NW",,Silverdale,WA,98383,US
521,521,"105 National Ave N",,Bremerton,WA,98312,US
522,522,"105 National Ave N",,Bremerton,WA,98312,US
523,523,"2464 Lower Hoh Rd",,Forks,WA,98331,US
524,524,"5112 NW Taylor Rd",,Bremerton,WA,98312,US
525,525,"2152 W Sims Way",,"Port Townsend",WA,98368,US
526,526,"620 Cedar Ave",,"Port Hadlock",WA,98339,US
527,527,"10 Washington Ave",,Bremerton,WA,98337,US
528,528,"375 Ericksen Ave NE Suite 212",,"Bainbridge Island",WA,98110,US
529,529,"380 Jefferson St",,"Port Townsend",WA,98368,US
530,530,"614 Division St MS-23",,"Port Orchard",WA,98366,US
531,531,"No Physical Location",,"Port Orchard",WA,98366,US
532,532,"2121 S State St",,Tacoma,WA,98405,US
533,533,"1138 SW Old Clifton Rd",,"Port Orchard",WA,98366,US
534,534,"243511 West Highway 101",,"Port Angeles",WA,98363,US
535,535,"401 E 1st St",,"Port Angeles",WA,98362,US
536,536,"22 Kwitsen Dr",,"Port Angeles",WA,98363,US
537,537,"933 E 1st St",,"Port Angeles",WA,98362,US
538,538,"322 Stratton Rd",,"Port Angeles",WA,98363,US
539,539,"243511 Highway 101",,"Port Angeles",WA,98363,US
540,540,"2851 Lower Elwha Rd",,"Port Angeles",WA,98363,US
541,541,"463 Stratton Rd",,"Port Angeles",WA,98363,US
542,542,"257509 E Highway 101",,Sequim,WA,98382,US
543,543,"No Physical Address",,"Port Hadlock",WA,98339,US
544,544,"3306 N Perry Ave",,Bremerton,WA,98310,US
545,545,"909 E Georgiana St",,"Port Angeles",WA,98362,US
546,546,"228 W 1st St Suite J",,"Port Angeles",WA,98362,US
547,547,"20730 Bond Rd NE",,Poulsbo,WA,98370,US
548,548,"Bangor Bldg 2900",,Silverdale,WA,98315,US
549,549,"NBK Bremerton Bldg 853",,Bremerton,WA,98314,US
550,550,"120 S Dewey St",,Bremerton,WA,98314,US
551,551,"No Physical Address",,Silverdale,WA,98315,US
552,552,"No Physical Address",,Keyport,WA,98345,US
553,553,"319 S Peabody St",,"Port Angeles",WA,98362,US
554,554,"139 W 8th St",,"Port Angeles",WA,98362,US
555,555,"205 E 5th St",,"Port Angeles",WA,98362,US
556,556,"112 E 8th St",,"Port Angeles",WA,98362,US
557,557,"490 N 5th Ave",,Sequim,WA,98382,US
558,558,"138 W 2nd St",,"Port Angeles",WA,98362,US
559,559,"118 E 8th St",,"Port Angeles",WA,98362,US
560,560,"507 Austin Ave",,"Port Orchard",WA,98366,US
561,561,"31912 Little Boston NE",,Kingston,WA,98346,US
562,562,"32014 Little Boston Rd NE",,Kingston,WA,98346,US
563,563,"7550 Little Boston Rd",,Kingston,WA,98346,US
564,564,"32020 Little Boston Rd NE",,Kingston,WA,98346,US
565,565,"90 Main St",,"La Push",WA,98350,US
566,566,"560 Quileute Heights Loop",,"La Push",WA,98350,US
567,567,"21 Quileute St",,"La Push",WA,98350,US
568,568,"847 N Sequim Ave Room 401",,Sequim,WA,98382,US
569,569,"Ediz Hook Rd",,"Port Angeles",WA,98362,US
570,570,"1367 Bay St",,"Port Orchard",WA,98366,US
571,571,"11701 Ridgepoint Dr NW",,Silverdale,WA,98383,US
572,572,"138 W 1st St Rm 113",,"Port Angeles",WA,98362,US
573,573,"No Physical Address",,Sequim,WA,98382,US
574,574,"290 Mac Leay Rd",,Sequim,WA,98382,US
575,575,"2483 Mitchell Rd",,"Port Orchard",WA,98366,US
576,576,"385 Benedict St",,"Port Townsend",WA,98368,US
577,577,"4525 Auto Center Way",,Bremerton,WA,98312,US
578,578,"1300 Sylvan Way",,Bremerton,WA,98310,US
579,579,"228 W 1st St Suite A",,"Port Angeles",WA,98362,US
580,580,"207 W Patison St",,"Port Hadlock",WA,98339,US
581,581,"18490 Suquamish Way",,Suquamish,WA,98392,US
582,582,"18490 Suquamish Way Suite 107",,Suquamish,WA,98392,US
583,583,"15838 Sandy Hook Rd",,Poulsbo,WA,98370,US
584,584,"5283 NE Totten Rd",,Poulsbo,WA,98370,US
585,585,"No Physical Location",,Bremerton,WA,98311,US
586,586,"101 National Ave N",,Bremerton,WA,98312,US
587,587,"1415 Lumsden Rd",,"Port Orchard",WA,98367,US
588,588,"10125 Frontier Pl NE",,Silverdale,WA,98383,US
589,589,"551 Bogachiel Way",,Forks,WA,98331,US
590,590,"787 NW Liberty Ln",,Poulsbo,WA,98370,US
591,591,"18825 Anderson Parkway",,Poulsbo,WA,98370,US
592,592,"11 Spartan Avenue",,Forks,WA,98331,US
593,593,"102 E 5th St",,"Port Angeles",WA,98362,US
594,594,"323 N 5th Ave",,Sequim,WA,98382,US
595,595,"12985 NE Phelps Rd",,"Bainbridge Island",WA,98110,US
596,596,"7934 NE Bucklin Hill Rd",,"Bainbridge Island",WA,98110,US
597,597,"8895 Madison Ave N",,"Bainbridge Island",WA,98110,US
598,598,"911 NE Liberty Rd",,Poulsbo,WA,98370,US
599,599,"1974 Fircrest Dr SE",,"Port Orchard",WA,98366,US
600,600,"546 Bay St",,"Port Orchard",WA,98366,US
601,601,"410 N H St",,Aberdeen,WA,98520,US
602,602,"111 E 4th St",,Aberdeen,WA,98520,US
603,603,"21 NE Romance Hill Rd",,Belfair,WA,98528,US
604,604,"19500 10th Ave NE Suite 100",,Poulsbo,WA,98370,US
605,605,"8804 Madison Ave N",,"Bainbridge Island",WA,98110,US
606,606,"700 Callahan Dr",,Bremerton,WA,98310,US
607,607,"450 South Kitsap Blvd",,"Port Orchard",WA,98366,US
608,608,"1800 NW Myhre Rd",,Silverdale,WA,98383,US
609,609,"2520 Cherry Ave",,Bremerton,WA,98310,US
610,610,"9633 Levin Rd Suite 103",,Silverdale,WA,98383,US
611,611,"1800 NW Myhre Rd",,Silverdale,WA,98383,US
612,612,"1600 12th St",,Bremerton,WA,98337,US
613,613,"225 NW Lindvig Way #9",,Poulsbo,WA,98370,US
614,614,Confidential,,"Port Orchard",WA,98367,US
615,615,"345 Knechtel Way NE Suite 111",,"Bainbridge Island",WA,98110,US
616,616,"18777 9th Ave NE",,Poulsbo,WA,98370,US
617,617,"20730 Bond Rd NE Suite 108",,Poulsbo,WA,98370,US
618,618,"103 N Callow Ave",,Bremerton,WA,98312,US
619,619,"1191 NW Tahoe Ln",,Silverdale,WA,98383,US
620,620,"700 Prospect St Suite 205",,"Port Orchard",WA,98366,US
621,621,"20730 NE Bond Rd Suite 200",,Poulsbo,WA,98370,US
622,622,"345 Knechtel Way NE Suite 101",,"Bainbridge Island",WA,98110,US
623,623,"365 Ericksen Ave NE Suite 311",,"Bainbridge Island",WA,98110,US
624,624,"9030 Pacific Ave",,Silverdale,WA,98383,US
625,625,"10049 Kitsap Mall Blvd Ste 257",,Silverdale,WA,98383,US
626,626,"510 Dekalb St",,"Port Orchard",WA,98366,US
627,627,"1730 Pottery Ave Suite 120",,"Port Orchard",WA,98366,US
628,628,"7500 Old Military Rd Suite 103",,Bremerton,WA,98311,US
629,629,"104 Tremont Suite 101",,"Port Orchard",WA,98366,US
630,630,"600 Ericksen Ave",,"Bainbridge Island",WA,98110,US
631,631,"634 E 8th",,"Port Angeles",WA,98362,US
632,632,"225 NW Lindvig Way #10",,Poulsbo,WA,98370,US
633,633,"219 C Patison Suite E",,"Port Hadlock",WA,98339,US
634,634,"1730 Pottery Ave Suite 120",,"Port Orchard",WA,98366,US
635,635,"219C W Patison St",,"Port Hadlock",WA,98339,US
636,636,Confidential,,Olalla,WA,98359,US
637,637,"1879 25th St",,"Port Townsend",WA,98368,US
638,638,"3569 NW Lowell St",,Silverdale,WA,98383,US
639,639,"820 Simpson Ave",,Hoquiam,WA,98550,US
640,640,"1335 Mountain View Rd",,Poulsbo,WA,98370,US
641,641,"5083 Taylor Ave NE",,"Bainbridge Island",WA,98110,US
642,642,"No Physical Address",,"Port Orchard",WA,98366,US
643,643,"100 SE Whitener Rd",,Shelton,WA,98584,US
644,644,"308 E Young St",,Elma,WA,98541,US
645,645,"10 SE Squaxin Ln",,Shelton,WA,98584,US
646,646,"345 Knechtel Way Suite 102",,"Bainbridge Island",WA,98110,US
647,647,"785 Ericksen Ave NE Suite 117",,"Bainbridge Island",WA,98110,US
648,648,"9481 Bayshore Dr #204",,Silverdale,WA,98383,US
649,649,"1809 Sheridan St",,"Port Townsend",WA,98368,US
650,650,"4841 Auto Center Way Suite 203",,Bremerton,WA,98312,US
651,651,"630 E Front St Suite D",,"Port Angeles",WA,98362,US
652,652,"701 E Front St",,"Port Angeles",WA,98362,US
653,653,Confidential,,"Port Orchard",WA,98366,US
654,654,"10356 Silverdale Way NW",,Silverdale,WA,98383,US
655,655,"301 Pacific Ave",,Bremerton,WA,98310,US
656,656,"1730 Pottery Ave Suite 120",,"Port Orchard",WA,98366,US
657,657,"355 Ericksen Ave Suite 413",,"Bainbridge Island",WA,98110,US
658,658,"No Physical Adress",,"Port Townsend",WA,98368,US
659,659,"11791 Fjord Dr NE",,Poulsbo,WA,98370,US
660,660,"No Physical Address",,Shelton,WA,98584,US
661,661,"26076 Iowa Ave NE",,Kingston,WA,98346,US
662,662,"9395 Linder Way NE",,Silverdale,WA,98383,US
663,663,"405 S Peabody St",,"Port Angeles",WA,98362,US
664,664,"1740 NE Riddell Rd Suite 314",,Bremerton,WA,98310,US
665,665,"686 Lake St Suite 400",,"Port Townsend",WA,98368,US
666,666,"77 W Nelson Rd",,Sequim,WA,98382,US
667,667,"60 Amber Ln",,Sequim,WA,98382,US
668,668,"700 W Market St",,Aberdeen,WA,98520,US
669,669,"111 D St",,Cosmopolis,WA,98537,US
670,670,"625 8th St",,Hoquiam,WA,98550,US
671,671,"701 Washington Ave N",,"Long Beach",WA,98631,US
672,672,"212 S Pacific Ave S",,"Long Beach",WA,98631,US
673,673,"13375 W Cloquallum Rd",,Elma,WA,98541,US
674,674,"331 N Finch Creek Rd",,Hoodsport,WA,98548,US
675,675,"130 E Island Lake Rd",,Shelton,WA,98584,US
676,676,"240 N Standstill Dr",,Hoodsport,WA,98548,US
677,677,"460 NE Old Belfair Highway",,Belfair,WA,98528,US
678,678,"4350 Grapeview Loop Rd",,Grapeview,WA,98546,US
679,679,"SE 2970 Arcadia Rd",,Shelton,WA,98584,US
680,680,"2320 W Skokomish Valley Rd",,Shelton,WA,98584,US
681,681,"322 N 3rd St",,Shelton,WA,98584,US
682,682,"100 S 3rd St",,McCleary,WA,98557,US
683,683,"310 E Pioneer Ave",,Montesano,WA,98563,US
684,684,"585 Point Brown Ave NE",,"Ocean Shores",WA,98569,US
685,685,"577 Point Brown Ave NW",,"Ocean Shores",WA,98569,US
686,686,"300 Memorial Dr",,"South Bend",WA,98586,US
687,687,"318 2nd St NE",,"Long Beach",WA,98631,US
688,688,"212 Commercial St",,Raymond,WA,98577,US
689,689,"233 2nd St",,Raymond,WA,98577,US
690,690,"525 W Cota St",,Shelton,WA,98584,US
691,691,"211 Willapa Ave",,"South Bend",WA,98586,US
692,692,"1102 W 1st St",,"South Bend",WA,98586,US
693,693,"50 E Seattle St",,Union,WA,98592,US
694,694,"170 W Spokane Ave",,Westport,WA,98595,US
695,695,Confidential,,Bremerton,WA,98311,US
696,696,"151 Ruth's Place Suite 1D",,Sequim,WA,98382,US
697,697,"1925 Blaine St Suite 106",,"Port Hadlock",WA,98368,US
698,698,"1006 N H St",,Aberdeen,WA,98520,US
699,699,"110 W Market St Suite 206A",,Aberdeen,WA,98520,US
700,700,"310 W Spruce St Suite 212",,Montesano,WA,98563,US
701,701,"300 Memorial Dr",,"South Bend",WA,98586,US
702,702,"7013 Sandridge Rd",,"Long Beach",WA,98631,US
703,703,"100 S 3rd St Building B",,McCleary,WA,98557,US
704,704,"153 Johns Court",,Shelton,WA,98584,US
705,705,"762 Ballentine St",,Raymond,WA,98577,US
706,706,"6750 Highway 303",,Bremerton,WA,98310,US
707,707,"645 4th St Suite 206",,Bremerton,WA,98337,US
708,708,"1110 Jefferson St",,"Port Townsend",WA,98368,US
709,709,"No Physical Address",,"Port Townsend",WA,98368,US
710,710,"724 W Railroad Ave",,Shelton,WA,98584,US
711,711,"301 Lopez Ave",,"Port Angeles",WA,98362,US
712,712,"109 Olding Rd Suite 100",,Bremerton,WA,98312,US
713,713,"16990 Highway 112",,"Clallam Bay",WA,98326,US
714,714,"171 S Forks Ave",,Forks,WA,98331,US
715,715,"2210 S Peabody St",,"Port Angeles",WA,98362,US
716,716,"630 N Sequim Ave",,Sequim,WA,98382,US
717,717,"228 W 1st St Suite J",,"Port Angeles",WA,98362,US
718,718,"421 5th Ave",,Forks,WA,98331,US
719,719,"921 E Hammond St",,Sequim,WA,98382,US
720,720,"301 E Lopez St",,"Port Angeles",WA,98362,US
721,721,"328 E 7th St",,"Port Angeles",WA,98362,US
722,722,"No Physical Address",,"Port Angeles",WA,98362,US
723,723,"540 E 8th St",,"Port Angeles",WA,98362,US
724,724,"120 S Dewey St Bldg 491",,Bremerton,WA,98314,US
725,725,"1001 Tautog Kitsap",,Silverdale,WA,98315,US
726,726,"2520 Cherry Ave",,Bremerton,WA,98310,US
727,727,"286 4th St",,Bremerton,WA,98337,US
728,728,"9330 High School Rd",,"Bainbridge Island",WA,98110,US
729,729,"No Physical Address",,Sequim,WA,98382,US
730,730,"600 Kitsap St Suite 104",,"Port Orchard",WA,98366,US
731,731,"230 E 7th St",,"Port Angeles",WA,98362,US
732,732,"51 Chimacum Rd",,"Port Hadlock",WA,98339,US
733,733,"945 S Forks Ave",,Forks,WA,98331,US
734,734,Confidential,,Shelton,WA,98584,US
735,735,"218 N 3rd St",,Shelton,WA,98584,US
736,736,"2525 6th St Suite B",,Bremerton,WA,98312,US
737,737,"617 S Forrest St",,Westport,WA,98595,US
738,738,"301 N G St",,Aberdeen,WA,98520,US
739,739,"2109 Sumner Ave Suite 200",,Aberdeen,WA,98520,US
740,740,"No Physical Address",,Aberdeen,WA,98520,US
741,741,"1128 E Front St",,"Port Angeles",WA,98362,US
742,742,"2500 W Sims Way Suite 203",,"Port Townsend",WA,98368,US
743,743,"10 W Valley Rd",,Chimacum,WA,98325,US
744,744,"4207 Wheaton Way Suite C",,Bremerton,WA,98310,US
745,745,"2326 Wheaton Way",,Bremerton,WA,98310,US
746,746,"500 Pacific Ave Suite 400",,Bremerton,WA,98337,US
747,747,"109 Olding Rd Suite 100",,Bremerton,WA,98312,US
748,748,"4545 Auto Center Way B-1",,Bremerton,WA,98312,US
749,749,"18490 Suquamish Way Suite 105",,Suquamish,WA,98392,US
750,750,"1136 Water St Suite 109",,"Port Townsend",WA,98368,US
751,751,"900 Sylvan Way",,Bremerton,WA,98310,US
752,752,"901 N Wycoff Ave",,Bremerton,WA,98312,US
753,753,"62 Old Olympic Highway",,"Port Angeles",WA,98362,US
754,754,"797 State Route 4",,Naselle,WA,98638,US
755,755,"3111 Pacific Ave",,Hoquiam,WA,98550,US
756,756,"4811 W Werner Rd",,Bremerton,WA,98312,US
757,757,"629 W Dayton Airport Rd",,Shelton,WA,98584,US
758,758,"4195 Wheaton Way",,Bremerton,WA,98310,US
759,759,"2109 Sumner Ave Suite 203",,Aberdeen,WA,98520,US
760,760,"281 Lane De Chantal #A",,"Port Townsend",WA,98368,US
761,761,"1007 Scott St Suite F",,Bremerton,WA,98337,US
762,762,"1912 W 18th St",,"Port Angeles",WA,98363,US
763,763,"19160 Front St NE",,Poulsbo,WA,98370,US
764,764,"1216 W Robert Bush Dr",,"South Bend",WA,98586,US
765,765,"7013 Sandridge Rd",,"Long Beach",WA,98631,US
766,766,"525 W Cota St",,Shelton,WA,98584,US
767,767,"902 W Pine St",,Shelton,WA,98584,US
768,768,"115 Bolstad Ave W",,"Long Beach",WA,98631,US
769,769,"230 2nd St",,Raymond,WA,98577,US
770,770,"300 1st St",,Raymond,WA,98577,US
771,771,"1102 W 1st St",,"South Bend",WA,98586,US
772,772,"200 E Market St",,Aberdeen,WA,98520,US
773,773,"210 E Market St",,Aberdeen,WA,98520,US
774,774,"1101 W Heron St",,Aberdeen,WA,98520,US
775,775,"1300 1st St",,Cosmopolis,WA,98537,US
776,776,"1312 1st St",,Cosmopolis,WA,98537,US
777,777,"1800 1st St",,Cosmopolis,WA,98537,US
778,778,"202 W Main St",,Elma,WA,98541,US
779,779,"202 W Main St",,Elma,WA,98541,US
780,780,"112 N 2nd St",,Elma,WA,98541,US
781,781,"609 8th St",,Hoquiam,WA,98550,US
782,782,"100 S 3rd St",,McCleary,WA,98557,US
783,783,"112 N Main St",,Montesano,WA,98563,US
784,784,"204 E Main St",,Oakville,WA,98568,US
785,785,"585 Point Brown Ave NW",,"Ocean Shores",WA,98569,US
786,786,"801 Minard Ave NW",,"Ocean Shores",WA,98569,US
787,787,"800 Anchor Ave NW",,"Ocean Shores",WA,98569,US
788,788,"604 N Montesano St",,Westport,WA,98595,US
789,789,"313 W Waldrip St",,Elma,WA,98541,US
790,790,"100 W Broadway Suite 2",,Montesano,WA,98563,US
791,791,"2616 Sumner Ave",,Aberdeen,WA,98520,US
792,792,"719 8th St",,Hoquiam,WA,98550,US
793,793,"411 N 5th St",,Shelton,WA,98584,US
794,794,"30 NE Romance Hill Rd Ste 103",,Belfair,WA,98528,US
795,795,"301 E Kneeland Blvd #240",,Shelton,WA,98584,US
796,796,"2511 N Olympic Hwy Suite 100",,Shelton,WA,98584,US
797,797,"307 E Robert Bush Dr",,"South Bend",WA,98586,US
798,798,"116 1st Ave S",,Ilwaco,WA,98624,US
799,799,"7013 Sandridge Rd",,"Long Beach",WA,98631,US
800,800,"300 Memorial Dr",,"South Bend",WA,98586,US
801,801,"415 W Wishkah St A1",,Aberdeen,WA,98520,US
802,802,"2505 Olympic Hwy N Suite 440",,Shelton,WA,98584,US
803,803,"1620 Olympic Highway North",,Shelton,WA,98584,US
804,804,"820 Pacific Ave Suite 201",,Bremerton,WA,98337,US
805,805,"3594 Byron St Suite 102",,Silverdale,WA,98383,US
806,806,"777 N 5th Ave Suite 109",,Sequim,WA,98382,US
807,807,"307 E Robert Bush Dr",,"South Bend",WA,98586,US
808,808,"2601 Pacific Ave N",,"Long Beach",WA,98631,US
809,809,"307 E Robert Bush Dr",,"South Bend",WA,98586,US
810,810,"2601 Pacific Ave N",,"Long Beach",WA,98631,US
811,811,"415 W Wishkah St Suite A2",,Aberdeen,WA,98520,US
812,812,"2505 Olympic Hwy N Suite 440",,Shelton,WA,98584,US
813,813,"3501 NW Lowell St Suite 201",,Silverdale,WA,98383,US
814,814,"705 30th St",,Hoquiam,WA,98550,US
815,815,"216 N 2nd St",,Raymond,WA,98577,US
816,816,"176 1st Ave N",,Ilwaco,WA,98624,US
817,817,"174 1st Ave N",,Ilwaco,WA,98624,US
818,818,"21 N Valley Rd",,Naselle,WA,98638,US
819,819,"114 N Park St",,Aberdeen,WA,98520,US
820,820,"611 W Cota St",,Shelton,WA,98584,US
821,821,"23552 NE State Route 3 B-1",,Belfair,WA,98528,US
822,822,"No Physical Address",,"Long Beach",WA,98631,US
823,823,"2200 NW Myhre Rd",,Silverdale,WA,98383,US
824,824,"19245 7th Ave",,Poulsbo,WA,98370,US
825,825,"450 S Kitsap Blvd Suite 250",,"Port Orchard",WA,98367,US
826,826,"9398 Ridgetop Blvd NW",,Silverdale,WA,98383,US
827,827,"1780 NW Myhre Rd, Suite 2120",,Silverdale,WA,98383,US
828,828,"945 Hildebrand Ln NE Suite 100",,"Bainbridge Island",WA,98110,US
829,829,"2011 NE Myhre Rd",,Silverdale,WA,98383,US
830,830,"9621 Ridgetop Blvd NW",,Silverdale,WA,98383,US
831,831,"1313 Pacific Ave",,Aberdeen,WA,98520,US
832,832,"410 North G St",,Aberdeen,WA,98520,US
833,833,"301 S Farragut St",,Aberdeen,WA,98520,US
834,834,"1516 North B St",,Aberdeen,WA,98520,US
835,835,"409 North K St",,Aberdeen,WA,98520,US
836,836,"1801 Bay Ave",,Aberdeen,WA,98520,US
837,837,"100 E Lindstrom St",,Aberdeen,WA,98520,US
838,838,"300 N Williams",,Aberdeen,WA,98520,US
839,839,"410 North G St",,Aberdeen,WA,98520,US
840,840,"216 N G St",,Aberdeen,WA,98520,US
841,841,"601 School Rd",,Aberdeen,WA,98520,US
842,842,"1439 4th St",,Cosmopolis,WA,98537,US
843,843,"705 Waldrip St",,Elma,WA,98541,US
844,844,"1235 Monte-Elma Rd",,Elma,WA,98541,US
845,845,"1235 Monte-Elma Rd",,Elma,WA,98541,US
846,846,"1235 Monte-Elma Rd",,Elma,WA,98541,US
847,847,"1235 Monte-Elma Rd",,Elma,WA,98541,US
848,848,"822 E Mason Benson Rd",,Grapeview,WA,98546,US
849,849,"111 N State Route 106",,Shelton,WA,98584,US
850,850,"305 Simpson Avenue",,Hoquiam,WA,98550,US
851,851,"501 W Emerson Ave",,Hoquiam,WA,98550,US
852,852,"200 Spencer St",,Hoquiam,WA,98550,US
853,853,"310 Simpson Ave",,Hoquiam,WA,98550,US
854,854,"700 Wood Ave",,Hoquiam,WA,98550,US
855,855,"101 W Emerson Ave",,Hoquiam,WA,98550,US
856,856,"2500 Simpson Ave",,Hoquiam,WA,98550,US
857,857,"W 2987 Matlock Brady Rd",,Elma,WA,98541,US
858,858,"611 S Main St",,McCleary,WA,98557,US
859,859,"303 N Church St",,Montesano,WA,98563,US
860,860,"519 W Simpson Ave",,Montesano,WA,98563,US
861,861,"1717 Beacon Ave E",,Montesano,WA,98563,US
862,862,"302 N Church St",,Montesano,WA,98563,US
863,863,"793 State Route 4",,Naselle,WA,98638,US
864,864,"2652 State Route 109",,"Ocean City",WA,98569,US
865,865,"336 State Route 115",,"Ocean City",WA,98569,US
866,866,"300 Mt Olympus Ave",,"Ocean Shores",WA,98569,US
867,867,"11 4th St",,"Pacific Beach",WA,98571,US
868,868,"791 NE Sand Hill Rd",,Belfair,WA,98528,US
869,869,"300 E Campus Dr",,Belfair,WA,98528,US
870,870,"22900 NE State Route 3",,Belfair,WA,98528,US
871,871,"71 E Campus Drive",,Belfair,WA,98528,US
872,872,"200 E Campus Dr",,Belfair,WA,98528,US
873,873,"2867 North River Rd",,Cosmopolis,WA,98537,US
874,874,"500 Washington Ave S",,"Long Beach",WA,98631,US
875,875,"400 Washington Ave S",,"Long Beach",WA,98631,US
876,876,"25701 Vernon Ave",,"Ocean Park",WA,98640,US
877,877,"314 Brumbach NE",,Ilwaco,WA,98624,US
878,878,"404 School Rd",,Ilwaco,WA,98624,US
879,879,"2580 S Montesano St",,Westport,WA,98595,US
880,880,"611 E Agate Rd",,Shelton,WA,98584,US
881,881,"110 E Spencer Lake Rd",,Shelton,WA,98584,US
882,882,"612 E Agate Rd",,Shelton,WA,98584,US
883,883,"6130 US Highway 101 N",,"Amanda Park",WA,98526,US
884,884,"1016 Commercial St",,Raymond,WA,98577,US
885,885,"921 Commerical St",,Raymond,WA,98577,US
886,886,"534 East K St",,Shelton,WA,98584,US
887,887,"3737 N Shelton Springs Rd",,Shelton,WA,98584,US
888,888,"807 W Pine St",,Shelton,WA,98584,US
889,889,"800 East K St",,Shelton,WA,98584,US
890,890,"900 W Franklin St",,Shelton,WA,98584,US
891,891,"350 University Ave",,Shelton,WA,98584,US
892,892,"700 S 1st St",,Shelton,WA,98584,US
893,893,"3301 N Shelton Springs Rd",,Shelton,WA,98584,US
894,894,"401 E 1st St",,"South Bend",WA,98586,US
895,895,"500 E 1st St",,"South Bend",WA,98586,US
896,896,"400 E 1st St",,"South Bend",WA,98586,US
897,897,"161 SE Collier Road",,Shelton,WA,98584,US
898,898,"600 Chitwhin Dr",,Taholah,WA,98587,US
899,899,"4640 Wishkah Rd",,Aberdeen,WA,98520,US
900,900,"845 Willapa 4th St",,Raymond,WA,98577,US
901,901,"22 Viking Way",,Menlo,WA,98561,US
902,902,"103 School St",,Oakville,WA,98568,US
903,903,"853 Monte-Elma Rd",,Satsop,WA,98583,US
904,904,"5002 Kitsap Way, Lower Level",,Bremerton,WA,98312,US
905,905,"1014 Bay St Suite 11",,"Port Orchard",WA,98366,US
906,906,"1340 Lloyd Parkway",,"Port Orchard",WA,98367,US
907,907,"450 S Kitsap Blvd Suite 230",,"Port Orchard",WA,98366,US
908,908,"9951 Mickelberry Rd Suite 101",,Silverdale,WA,98383,US
909,909,"9095 McConnell Ave NW",,Silverdale,WA,98383,US
910,910,"614 Division St Room 250",,"Port Orchard",WA,98366,US
911,911,"920 Park Ave Suite 5",,Bremerton,WA,98337,US
912,912,"600 Cliff St",,"Port Townsend",WA,98368,US
913,913,"902 E Caroline St",,"Port Angeles",WA,98362,US
914,914,"840 N 5th Ave Suite 1300",,Sequim,WA,98382,US
915,915,"395 Winslow Way NE",,"Bainbridge Island",WA,98110,US
916,916,"227 NW Lindvig Way Suite 100",,Poulsbo,WA,98370,US
917,917,"3850 Kitsap Way",,Bremerton,WA,98312,US
918,918,"19045 WA-305 Suite 140",,Poulsbo,WA,98370,US
919,919,"1550 NE Riddell Rd",,Bremerton,WA,98310,US
920,920,"9080 Silverdale Way Suite 102",,Silverdale,WA,98383,US
921,921,"614 Division St",,"Port Orchard",WA,98366,US
922,922,"228 W 1st St Suite M",,"Port Angeles",WA,98362,US
923,923,"421 5th Ave",,Forks,WA,98331,US
924,924,"223 E 4th St Suite 1",,"Port Angeles",WA,98362,US
925,925,"645 W Washington St",,Sequim,WA,98382,US
926,926,"192681 Highway 101",,Forks,WA,98331,US
927,927,"1820 Jefferson St",,"Port Townsend",WA,98368,US
928,928,"2300 S Park Ave",,"Port Townsend",WA,98368,US
929,929,"5610 Kitsap Way Suite 350",,Bremerton,WA,98312,US
930,930,"240 W Front St",,"Port Angeles",WA,98362,US
931,931,"20174 Front St NE",,Poulsbo,WA,98370,US
932,932,"9431 Coppertop Loop",,"Bainbridge Island",WA,98110,US
933,933,"823 Commerce Loop",,"Port Townsend",WA,98368,US
934,934,"209 Monroe St",,"Port Townsend",WA,98368,US
935,935,"845 8th St",,Bremerton,WA,98337,US
936,936,"106 W Main St",,Elma,WA,98541,US
937,937,"2210 S Peabody Ave",,"Port Angeles",WA,98362,US
938,938,"500 E Division St",,Forks,WA,98331,US
939,939,"11 Rice St",,Sekiu,WA,98381,US
940,940,"No Physical Address",,"Port Angeles",WA,98362,US
941,941,"328 E 7th St",,"Port Angeles",WA,98362,US
942,942,"921 E Hammond St",,Sequim,WA,98382,US
943,943,"No Physical Address",,"Port Townsend",WA,98368,US
944,944,"620 Tyler St",,"Port Townsend",WA,98368,US
945,945,"10 W Valley Rd",,Chimacum,WA,98325,US
946,946,"294952 Highway 101",,Quilcene,WA,98376,US
947,947,"2373 Old Tokeland Rd",,Tokeland,WA,98590,US
948,948,"2373 Old Tokeland Rd",,Tokeland,WA,98590,US
949,949,"No Physical Location",,"Port Angeles",WA,98362,US
950,950,"1780 Lincoln Ave SE",,"Port Orchard",WA,98366,US
951,951,"1201 Park Ave",,Bremerton,WA,98337,US
952,952,"845 8th St",,Bremerton,WA,98337,US
953,953,"3200 SE Rainshadow Court",,"Port Orchard",WA,98366,US
954,954,"3513 NW Anderson Hill Rd",,Silverdale,WA,98383,US
955,955,Confidential,,Bremerton,WA,98337,US
956,956,"102 E 5th St",,"Port Angeles",WA,98362,US
957,957,"2505 Olympic Hwy N Suite 420",,Shelton,WA,98584,US
958,958,"415 W Wishkah St Suite 2C",,Aberdeen,WA,98520,US
959,959,"307 E Robert Bush Dr",,"South Bend",WA,98586,US
960,960,"2601 Pacific Ave N",,"Long Beach",WA,98631,US
961,961,"4810 Auto Center Way Suite Z",,Bremerton,WA,98312,US
962,962,"1207 Carver St",,Bremerton,WA,98312,US
963,963,"18732 Division Ave NE",,Suquamish,WA,98392,US
964,964,"820 Pacific Ave Suite 201",,Bremerton,WA,98337,US
965,965,"1136 Water St Suite 106",,"Port Townsend",WA,98368,US
966,966,"2700 Simpson Ave Suite 205",,Aberdeen,WA,98520,US
967,967,"181 Bogachiel Way",,Forks,WA,98331,US
968,968,"915 Anderson Dr",,Aberdeen,WA,98520,US
969,969,"No Physical Address",,Bremerton,WA,98311,US
970,970,"915 Sheridan St Suite 201",,"Port Townsend",WA,98368,US
971,971,"915 Sheridan St Suite 201",,"Port Townsend",WA,98368,US
972,972,"915 Sheridan St Suite 201",,"Port Townsend",WA,98368,US
973,973,"915 Sheridan St Suite 201",,"Port Townsend",WA,98368,US
974,974,"203 W 1st St",,"Port Angeles",WA,98362,US
975,975,"235 W 1st St",,"Port Angeles",WA,98362,US
976,976,"421 5th Ave",,Forks,WA,98331,US
977,977,"201 W 1st St Suite 2",,"Port Angeles",WA,98362,US
978,978,"203 W 1st St",,"Port Angeles",WA,98362,US
979,979,"3423 6th St Rm 110",,Bremerton,WA,98312,US
980,980,"4710 Auto Center Blvd",,Bremerton,WA,98312,US
981,981,"3423 6th Ave Suite 217",,Bremerton,WA,98312,US
982,982,"3888 NW Randall Way Suite 201",,Silverdale,WA,98383,US
983,983,"2505 Olympic Hwy N Suite 440",,Shelton,WA,98584,US
984,984,"2505 Olympic Hwy N Suite 440",,Shelton,WA,98584,US
985,985,"415 W Wishkah St Suite 2A",,Aberdeen,WA,98520,US
986,986,"415 W Wishkah",,Aberdeen,WA,98520,US
987,987,"2601 Pacific Ave N",,"Long Beach",WA,98631,US
988,988,"307 E Robert Bush Dr",,"South Bend",WA,98586,US
989,989,"18920 4th Ave NE",,Poulsbo,WA,98370,US
990,990,"1700 NE Lincoln Rd",,Poulsbo,WA,98370,US
991,991,"1018 18th St",,Bremerton,WA,98337,US
992,992,"11212 Sate Highway 104",,Kingston,WA,98346,US
993,993,"25990 Barber Cut Off Rd",,Kingston,WA,98346,US
994,994,"100 W Main St",,Elma,WA,98541,US
995,995,"18943 Caldart Ave",,Poulsbo,WA,98370,US
996,996,"680 Lebo Blvd",,Bremerton,WA,98310,US
997,997,"324 Jackson St",,Raymond,WA,98577,US
998,998,"1296 Monte Elma Rd",,Shelton,WA,98584,US
999,999,"18901 8th Ave NE",,Poulsbo,WA,98370,US
1000,1000,"169 E Washington St",,Sequim,WA,98382,US
1001,1001,"300 E Campus Dr East Addition",,Belfair,WA,98528,US
1002,1002,"26110 Ridge Ave",,"Ocean Park",WA,98640,US
1003,1003,"114 E Pacific Ave",,Westport,WA,98595,US
1004,1004,"3102 Wheaton Way",,Bremerton,WA,98310,US
1005,1005,"2400 Perry Ave",,Bremerton,WA,98310,US
1006,1006,"209 W 11th St",,"Port Angeles",WA,98362,US
1007,1007,"10200 Old Olympic Highway",,Sequim,WA,98382,US
1008,1008,"81 Chimicum Rd",,Chimacum,WA,98325,US
1009,1009,"1200 Soule Ave",,Hoquiam,WA,98550,US
1010,1010,"2109 Sumner Ave Rm 201",,Aberdeen,WA,98520,US
1011,1011,"18920 4th Ave NE",,Poulsbo,WA,98370,US
1012,1012,"550 Russell Rd",,Bremerton,WA,98312,US
1013,1013,"1701 5th St",,Bremerton,WA,98337,US
1014,1014,"242 N 1st St",,Raymond,WA,98577,US
1015,1015,"100 S Blake Ave",,Sequim,WA,98382,US
1016,1016,"6251 NW Newberry Hill Rd",,Silverdale,WA,98383,US
1017,1017,"802 7th St",,Bremerton,WA,98337,US
1018,1018,"5455 Almira Dr NE",,Bremerton,WA,98311,US
1019,1019,"902 Dekalb St",,"Port Orchard",WA,98366,US
1020,1020,"1200 Fairgrounds Rd NW",,Bremerton,WA,98311,US
1021,1021,"1600 12th St",,Bremerton,WA,98337,US
1022,1022,"18920 4th Ave",,Poulsbo,WA,98370,US
1023,1023,"113 W Cota St",,Shelton,WA,98584,US
1024,1024,"628 Alder St",,Shelton,WA,98584,US
1025,1025,"205 6th St",,Bremerton,WA,98337,US
1026,1026,"1919 Blaine St",,"Port Townsend",WA,98368,US
1027,1027,"200 NE Moe St",,Poulsbo,WA,98370,US
1028,1028,"3355 Bethel Rd SE",,"Port Orchard",WA,98366,US
1029,1029,"10315 Silverdale Way",,Silverdale,WA,98383,US
1030,1030,"No Physical Address",,"Port Hadlock",WA,98339,US
1031,1031,"22900 NE State Route 3",,Belfair,WA,98528,US
1032,1032,"714 Bay St",,"Port Orchard",WA,98366,US
1033,1033,"45 Eberle Ln",,Sequim,WA,98382,US
1034,1034,"516 E 1st St",,"Port Angeles",WA,98362,US
1035,1035,"2386 Colchester Dr",,Manchester,WA,98353,US
1036,1036,"106 W Main St",,Elma,WA,98541,US
1037,1037,"620 Fordney St",,Aberdeen,WA,98520,US
1038,1038,"1800 Coolidge Rd",,Aberdeen,WA,98520,US
1039,1039,"212 4th St",,Hoquiam,WA,98550,US
1040,1040,"1700 Cherry St",,Aberdeen,WA,98520,US
1041,1041,"1017 S Boone St",,Aberdeen,WA,98520,US
1042,1042,"317 Spruce St",,Montesano,WA,98563,US
1043,1043,"8203 Sportsman Club Rd NE",,"Bainbridge Island",WA,98110,US
1044,1044,"710 E Market St",,Aberdeen,WA,98520,US
1045,1045,"810 6th St",,Bremerton,WA,98337,US
1046,1046,"1003 5th St",,Bremerton,WA,98337,US
1047,1047,"1600 12th St",,Bremerton,WA,98337,US
1048,1048,"1216 Ivy Rd",,Bremerton,WA,98310,US
1049,1049,"1780 Lincoln Ave SE",,"Port Orchard",WA,98366,US
1050,1050,"260 N Hoodsport Park Rd",,Hoodsport,WA,98548,US
1051,1051,"1391 E McReavy Rd",,Union,WA,98592,US
1052,1052,"615 W Alder St",,Shelton,WA,98584,US
1053,1053,"2001 NE Sandhill Rd",,Belfair,WA,98528,US
1054,1054,"521 N 4th St #B",,Shelton,WA,98584,US
1055,1055,"419 N 4th St",,Shelton,WA,98584,US
1056,1056,"411 N 5th St",,Shelton,WA,98584,US
1057,1057,"501 W Eells Hill Rd",,Shelton,WA,98584,US
1058,1058,"100 W Public Works Dr",,Shelton,WA,98584,US
1059,1059,"4201 Olympic Highway",,Aberdeen,WA,98520,US
1060,1060,"2179 State Highway 105",,Westport,WA,98595,US
1061,1061,"46 S Union Rd",,Elma,WA,98541,US
1062,1062,"No Physical Address",,Elma,WA,98541,US
1063,1063,"2109 Sumner Ave Rm 201",,Aberdeen,WA,98520,US
1064,1064,"103 Hagara St",,Aberdeen,WA,98520,US
1065,1065,"102 W Broadway Ave",,Montesano,WA,98563,US
1066,1066,"100 W Broadway Ave",,Montesano,WA,98563,US
1067,1067,"2174 State Highway 109",,"Ocean Shores",WA,98569,US
1068,1068,"7013 Sandridge Rd",,"Long Beach",WA,98631,US
1069,1069,"300 Memorial Dr",,"South Bend",WA,98586,US
1070,1070,"1216 W Robert Bush Dr",,"South Bend",WA,98586,US
1071,1071,"318 NE 2nd St",,"Long Beach",WA,98631,US
1072,1072,"2720 Sumner Ave",,Aberdeen,WA,98520,US
1073,1073,"2621 E Johns Prairie Road",,Shelton,WA,98584,US
1074,1074,"9610 Sandridge Rd",,"Long Beach",WA,98631,US
1075,1075,"405 Duryea St",,Raymond,WA,98577,US
1076,1076,"11900 Center Rd",,Quilcene,WA,98376,US
1077,1077,"848 Anchor Ave NW",,"Ocean Shores",WA,98569,US
1078,1078,"846 Anchor Ave NW",,"Ocean Shores",WA,98569,US
1079,1079,"405 S Temple St",,Oakville,WA,98568,US
1080,1080,"1601 Bay Ave",,"Ocean Park",WA,98640,US
1081,1081,"No Physical Address",,Shelton,WA,98584,US
1082,1082,"23081 NE State Route 3",,Belfair,WA,98528,US
1083,1083,"190 W Sentry Dr",,Shelton,WA,98584,US
1084,1084,"710 W Alder St",,Shelton,WA,98584,US
1085,1085,"10 SE Squaxin Ln",,Shelton,WA,98584,US
1086,1086,"No Physical Address",,Aberdeen,WA,98520,US
1087,1087,"120 Firman St",,Hoquiam,WA,98550,US
1088,1088,"420 7th St",,Hoquiam,WA,98550,US
1089,1089,"907 K St",,Hoquiam,WA,98550,US
1090,1090,"121 E Market St",,Aberdeen,WA,98520,US
1091,1091,"121 S 4th St",,McCleary,WA,98557,US
1092,1092,"1017 S Boone St",,Aberdeen,WA,98520,US
1093,1093,"573 Point Brown Ave NW",,"Ocean Shores",WA,98569,US
1094,1094,"4576 State Route 109",,"Pacific Beach",WA,98571,US
1095,1095,"1214 Aalis St",,Taholah,WA,98587,US
1096,1096,"1555 W Marine Dr",,Astoria,OR,97103,US
1097,1097,"507 Duryea St",,Raymond,WA,98577,US
1098,1098,"No Physical Address",,"Ocean Park",WA,98640,US
1099,1099,"1308 256th Pl",,"Ocean Park",WA,98640,US
1100,1100,"2373 Tokeland Rd",,Tokeland,WA,98590,US
1101,1101,"508 8th St",,Hoquiam,WA,98550,US
1102,1102,"228 W 1st St Suite N",,"Port Angeles",WA,98362,US
1103,1103,"237 Professional Way",,Shelton,WA,98584,US
1104,1104,"790 E John Prairie Rd Bldg 3",,Shelton,WA,98584,US
1105,1105,"26569 Lindvog Rd NE",,Kingston,WA,98346,US
1106,1106,"4688 Lynwood Center Rd NE ",,"Bainbridge Island",WA,98110,US
1107,1107,"100 S Blake Ave",,Sequim,WA,98382,US
1108,1108,"3101 Cherry St",,Hoquiam,WA,98550,US
1109,1109,"324 Jackson St",,Raymond,WA,98577,US
1110,1110,"152 First Ave",,Ilwaco,WA,98624,US
1111,1111,"298 Battery Way",,"Port Townsend",WA,98368,US
1112,1112,"9982 Silverdale Way",,Silverdale,WA,98383,US
1113,1113,"1213 Bay St",,"Port Orchard",WA,98366,US
1114,1114,"711 E 2nd St",,"Port Angeles",WA,98362,US
1115,1115,"4841 Auto Center Way Suite 201",,Bremerton,WA,98312,US
1116,1116,"511 W Heron St",,Aberdeen,WA,98520,US
1117,1117,"2601 N Pacific Highway",,"Long Beach",WA,98631,US
1118,1118,"600 Washington St",,Raymond,WA,98577,US
1119,1119,"1900 Austin Dr",,Bremerton,WA,98312,US
1120,1120,"113 S Valley St",,"Port Angeles",WA,98362,US
1121,1121,"900 Olympic Ave",,Bremerton,WA,98312,US
1122,1122,"2288 Fircrest Dr SE",,"Port Orchard",WA,98366,US
1123,1123,"500 SW Birch Rd",,"Port Orchard",WA,98367,US
1124,1124,"3102 Wheaton Way",,Bremerton,WA,98310,US
1125,1125,"8521 Madison Ave NE",,"Bainbridge Island",WA,98110,US
1126,1126,"313 S I St",,Aberdeen,WA,98520,US
1127,1127,"221 W Railroad Ave Suite 10",,Shelton,WA,98584,US
1128,1128,"140 NE State Route 300",,Belfair,WA,98528,US
1129,1129,"2500 Simpson Ave",,Hoquiam,WA,98550,US
1130,1130,"523 W 1st St Suite 1",,Aberdeen,WA,98520,US
1131,1131,"428 W Robert Bush Dr",,"South Bend",WA,98586,US
1132,1132,"No Physical Address",,Bremerton,WA,98337,US
1133,1133,"218 N Broadway St Suite 1",,Aberdeen,WA,98520,US
1134,1134,"525 W Cota St",,Shelton,WA,98584,US
1135,1135,"No Physical Address",,Aberdeen,WA,98520,US
1136,1136,"2315 Burwell St",,Bremerton,WA,98312,US
1137,1137,"9471 Coppertop Loop",,"Bainbridge Island",WA,98110,US
1138,1138,"9226 Bayshore Dr NW Suite 154",,Silverdale,WA,98383,US
1139,1139,"No Physical Address",,Belfair,WA,98528,US
1140,1140,"22871 NE State Route 3",,Belfair,WA,98528,US
1141,1141,"23300 Highway 3",,Belfair,WA,98528,US
1142,1142,"710 W Alder St",,Shelton,WA,98584,US
1143,1143,"4537 Juli Ct SE",,Olympia,WA,98501,US
1144,1144,"244 Madrona Beach Rd NW",,Olympia,WA,98502,US
1145,1145,"837 4th Street",,Bremerton,WA,98337,US
1146,1146,"787 Liberty Ln NW",,Poulsbo,WA,98370,US
1147,1147,"1201 Park Ave",,Bremerton,WA,98337,US
1148,1148,"3200 SE Rainshadow Court",,"Port Orchard",WA,98366,US
1149,1149,"3231 Pine Rd NE",,Bremerton,WA,98310,US
1150,1150,"No Physical Location",,Quilcene,WA,98376,US
1151,1151,"8987 McConnell Ave NW",,Silverdale,WA,98383,US
1152,1152,"317 E Spruce St",,Montesano,WA,98563,US
1153,1153,"112 N Main St",,Montesano,WA,98563,US
1154,1154,"3430 E Highway 101 Suite 3",,"Port Angeles",WA,98362,US
1155,1155,"314 N Broadway",,Westport,WA,98595,US
1156,1156,"4900 Auto Center Way",,Bremerton,WA,98312,US
1157,1157,"No Physical Address",,Belfair,WA,98528,US
1158,1158,"87 Sidney Ave",,"Port Orchard",WA,98366,US
1159,1159,"31948 Little Boston Rd NE",,Kingston,WA,98346,US
1160,1160,"4650 Bay Vista Blvd",,Bremerton,WA,98312,US
1161,1161,"1270 Madison Ave N",,"Bainbridge Island",WA,98110,US
1162,1162,"1600 Chester Ave ART 124",,Bremerton,WA,98337,US
1163,1163,"1026 Sidney Ave",,"Port Orchard",WA,98366,US
1164,1164,"19160 Front St",,Poulsbo,WA,98370,US
1165,1165,"680 Lebo Blvd",,Bremerton,WA,98310,US
1166,1166,"1150 Mitchell Ave",,"Port Orchard",WA,98366,US
1167,1167,"No Physical Address",,Bremerton,WA,98310,US
1168,1168,"9729 Silverdale Way NW",,Silverdale,WA,98383,US
1169,1169,"1925 Blaine St",,"Port Townsend",WA,98368,US
1170,1170,"32 Elma-McCleary Rd",,Elma,WA,98541,US
1171,1171,"1137 Callow Ave N",,Bremerton,WA,98312,US
1172,1172,"No Physical Address",,Silverdale,WA,98383,US
1173,1173,"6750 State Highway 303 NE",,Bremerton,WA,98311,US
1174,1174,"18901 8th Ave NE",,Poulsbo,WA,98370,US
1175,1175,"No Physical Location",,"Port Angeles",WA,98362,US
1176,1176,"4846 Auto Center Way",,Bremerton,WA,98312,US
1177,1177,"No Physical Address",,Sequim,WA,98382,US
1178,1178,"271 S 7th Ave",,Sequim,WA,98382,US
1179,1179,"50350 Highway 112 Portable #2",,"Port Angeles",WA,98363,US
1180,1180,"230 Chimacum Rd",,"Port Hadlock",WA,98339,US
1181,1181,"110 E 7th St",,"Port Angeles",WA,98362,US
1182,1182,"926 W Railroad Ave",,Shelton,WA,98584,US
1183,1183,"680 W Washington St Suite E106",,Sequim,WA,98382,US
1184,1184,"228 W 1st St Suite L",,"Port Angeles",WA,98362,US
1185,1185,"645 N 5th Ave",,Sequim,WA,98382,US
1186,1186,"71 Old Belfair Highway NE",,Belfair,WA,98528,US
1187,1187,"5050 Highway 303",,Bremerton,WA,98311,US
1188,1188,"615 W Waldrip St",,Elma,WA,98541,US
1189,1189,"9692 Levin Rd NW Suite 202",,Silverdale,WA,98383,US
1190,1190,"730 Ericksen Ave NE Suite 200",,"Bainbridge Island",WA,98110,US
1191,1191,"1590 Woodridge Dr SE",,"Port Orchard",WA,98366,US
1192,1192,"9633 Levin Road NW, Suite 206",,Silverdale,WA,98383,US
1193,1193,"1173 Madison Avenue N",,"Bainbridge Island",WA,98110,US
1194,1194,"950 Oak St",,Aberdeen,WA,98520,US
1195,1195,"800 W 1st St",,Aberdeen,WA,98520,US
1196,1196,"1616 SE Ellis Court Suite 290",,"Port Orchard",WA,98367,US
1197,1197,"2497 Bethel Rd SE Suite 202-A",,"Port Orchard",WA,98366,US
1198,1198,"3005 Simpson Ave",,Hoquiam,WA,98550,US
1199,1199,"500 Veneta Ave",,Bremerton,WA,98337,US
1200,1200,"No Physical Address",,"Port Orchard",WA,98366,US
1201,1201,"7650 Oak Bay Rd",,"Port Ludlow",WA,98365,US
1202,1202,"121 W Alder St",,"Port Ludlow",WA,98365,US
1203,1203,"101 S Point Rd",,"Port Ludlow",WA,98365,US
1204,1204,"272 Schoolhouse Rd",,Brinnon,WA,98320,US
1205,1205,"51 Shorewood Dr",,Brinnon,WA,98320,US
1206,1206,"30 Whitney Rd",,Quilcene,WA,98376,US
1207,1207,"3281 Dabob Road",,Quilcene,WA,98376,US
1208,1208,"70 Herbert St",,Quilcene,WA,98376,US
1209,1209,"1605 E Front St Suite C",,"Port Angeles",WA,98362,US
1210,1210,"415 W Wishkah St Suite 1C",,Aberdeen,WA,98520,US
1211,1211,"7666 High School Rd NE",,"Bainbridge Island",WA,98110,US
1212,1212,"14450 Komedal Rd",,"Bainbridge Island",WA,98110,US
1213,1213,"370 Brien Dr",,"Bainbridge Island",WA,98110,US
1214,1214,"900 Park Avenue NE",,"Bainbridge Island",WA,98110,US
1215,1215,"11299 Arrow Point Drive NE",,"Bainbridge Island",WA,98110,US
1216,1216,"8521 Madison Ave N",,"Bainbridge Island",WA,98110,US
1217,1217,"7666 NE High School Rd",,"Bainbridge Island",WA,98110,US
1218,1218,"8395 Fletcher Bay Rd NE",,"Bainbridge Island",WA,98110,US
1219,1219,"9332 High School Rd NE",,"Bainbridge Island",WA,98110,US
1220,1220,"520 Tyler St",,Hoquiam,WA,98550,US
1221,1221,"4576 WA-109",,"Pacific Beach",WA,98571,US
1222,1222,"406 Commux St",,Taholah,WA,98587,US
1223,1223,"118 E 8th St",,"Port Angeles",WA,98362,US
1224,1224,"3 E Park St",,"Bay Center",WA,98527,US
1225,1225,"1140 Nipsic Ave",,Bremerton,WA,98310,US
1226,1226,"87 Sidney Ave",,"Port Orchard",WA,98366,US
1227,1227,"700 NE Lincoln St",,Poulsbo,WA,98370,US
1228,1228,"3450 NW Carlton St",,Silverdale,WA,98383,US
1229,1229,"19917 7th Ave NE Suite 205",,Poulsbo,WA,98370,US
1230,1230,"320 S Kitsap Blvd",,"Port Orchard",WA,98366,US
1231,1231,"616 6th St",,Bremerton,WA,98337,US
1232,1232,"19160 Front St NE",,Poulsbo,WA,98370,US
1233,1233,"11212 NE State Highway 104",,Kingston,WA,98346,US
1234,1234,"10315 Silverdale Way",,Silverdale,WA,98383,US
1235,1235,"2508 Wheaton Way",,Bremerton,WA,98310,US
1236,1236,"911 NE Liberty Rd",,Poulsbo,WA,98370,US
1237,1237,"8067 E Main St",,Manchester,WA,98353,US
1238,1238,"No Physical Address",,,,,US
1239,1239,"31980 Little Boston Rd NE",,Kingston,WA,98346,US
1240,1240,"8895 Madison Ave N",,"Bainbridge Island",WA,98110,US
1241,1241,"7934 NE Bucklin Hill Rd",,"Bainbridge Island",WA,98110,US
1242,1242,"12985 NE Phelps Rd",,"Bainbridge Island",WA,98110,US
1243,1243,"1301 Sylvan Way",,Bremerton,WA,98310,US
1244,1244,"1270 Madison Ave N",,"Bainbridge Island",WA,98110,US
1245,1245,"612 5th St",,Bremerton,WA,98337,US
1246,1246,"420 Howanut Rd",,Oakville,WA,98568,US
1247,1247,"21 Niederman Rd",,Oakville,WA,98568,US
1248,1248,"30 Niederman Rd",,Oakville,WA,98568,US
1249,1249,"10 Petoie Ln",,Oakville,WA,98568,US
1250,1250,"400 W Fir St",,Sequim,WA,98382,US
1251,1251,"2620 S Francis St",,"Port Angeles",WA,98362,US
