id,location_id,attention,address_1,address_2,city,state_province,postal_code,country
1,2,,"PO BOX 4194",,BREMERTON,WA,98312,US
2,1,,"1780 SE LINCOLN AVE",,"PORT ORCHARD",WA,98366,US
3,3,,"720 LEVEE ST",,HOQUIAM,WA,98550,US
4,4,,"PO BOX 859",,ABERDEEN,WA,98520,US
5,5,,"PO BOX 859",,ABERDEEN,WA,98520,US
6,6,,"117 E 3RD STREET",,ABERDEEN,WA,98520,US
7,7,,"PO BOX 10",,BRINNON,WA,98320,US
8,8,,"9594 MICKELBERRY RD NW",,SILVERDALE,WA,98383,US
9,9,,"1012 MITCHELL AVE",,"PORT ORCHARD",WA,98366,US
10,10,,"1012 MITCHELL AVE",,"PORT ORCHARD",WA,98366,US
11,11,,"PO BOX 1897",,SILVERDALE,WA,98383,US
12,12,,"263 4TH ST",,BREMERTON,WA,98337,US
13,13,,"263 4TH ST",,BREMERTON,WA,98337,US
14,14,,"PO BOX 4492",,"BAINBRIDGE ISLAND",WA,98110,US
15,15,,"PO BOX 4244",,BREMERTON,WA,98312,US
16,16,,"PMB 132 5050 HWY 303 STE 103",,BREMERTON,WA,98311,US
17,17,,"695 OAK VIEW PL",,SEQUIM,WA,98382,US
18,21,,"695 OAK VIEW PL",,SEQUIM,WA,98382,US
19,20,,"695 OAK VIEW PL",,SEQUIM,WA,98382,US
20,19,,"695 OAK VIEW PL",,SEQUIM,WA,98382,US
21,18,,"695 OAK VIEW PL",,SEQUIM,WA,98382,US
22,22,,"695 OAK VIEW PL",,SEQUIM,WA,98382,US
23,23,,"PO BOX 1775",,FORKS,WA,98331,US
24,24,,"1500 NE RIDDELL RD SUITE F",,BREMERTON,WA,98310,US
25,25,,"5455 ALMIRA DR NE",,BREMERTON,WA,98311,US
26,26,,"PO BOX 786",,COSMOPOLIS,WA,98537,US
27,27,,"PO BOX 8",,SHELTON,WA,98584,US
28,28,,"3102 WHEATON WAY",,BREMERTON,WA,98310,US
29,29,,"PO BOX 1581",,SHELTON,WA,98584,US
30,30,,"514 E BROADWAY AVE E",,MONTESANO,WA,98563,US
31,31,,"PO BOX 1127",,SHELTON,WA,98584,US
32,32,,"PO BOX 243",,CHINOOK,WA,98614,US
33,33,,"PO BOX 304",,"COPALIS BEACH",WA,98535,US
34,34,,"2306 SUMNER AVE",,HOQUIAM,WA,98550,US
35,35,,"79 ELKINS RD",,"PORT HADLOCK",WA,98339,US
36,36,,"PO BOX 2697",,BELFAIR,WA,98528,US
37,37,,"PO BOX 2397",,BELFAIR,WA,98528,US
38,38,,"PO BOX 1549",,SHELTON,WA,98584,US
39,39,,"PO BOX 1549",,SHELTON,WA,98584,US
40,40,,"22653 STATE ROUTE 3",,BELFAIR,WA,98528,US
41,41,,"7362 E STATE ROUTE 106",,UNION,WA,98592,US
42,42,,"107 N 8TH ST",,SHELTON,WA,98584,US
43,43,,"PO BOX 995",,HOODSPORT,WA,98548,US
44,44,,"PO BOX 472",,HOQUIAM,WA,98550,US
45,45,,"PO BOX 168",,BELFAIR,WA,98528,US
46,46,,"PO BOX 132",,HUMPTULIPS,WA,98552,US
47,47,,"600 E MAIN ST",,ELMA,WA,98541,US
48,48,,"322 BIRCH ST",,MCCLEARY,WA,98557,US
49,49,,"600 E MAIN ST",,ELMA,WA,98541,US
50,50,,"PO BOX 1445",,BELFAIR,WA,98528,US
51,51,,"100 W PUBLIC WORKS DR",,SHELTON,WA,98584,US
52,52,,"PO BOX 1666",,SHELTON,WA,98584,US
53,53,,"PO BOX 1666",,SHELTON,WA,98584,US
54,54,,"PO BOX 2529",,SHELTON,WA,98584,US
55,55,,"PO BOX 1066",,SHELTON,WA,98584,US
56,56,,"71 SARGISON LOOP",,SHELTON,WA,98584,US
57,57,,"PO BOX 1880",,SHELTON,WA,98584,US
58,58,,"PO BOX 1116",,SHELTON,WA,98584,US
59,65,,"PO BOX 1668",,SHELTON,WA,98584,US
60,64,,"2300 KATI COURT SUITE C",,SHELTON,WA,98584,US
61,59,,"2300 KATI COURT SUITE A",,SHELTON,WA,98584,US
62,67,,"247 PROFESSIONAL WAY",,SHELTON,WA,98584,US
63,66,,"1812 N 13TH LOOP RD",,SHELTON,WA,98584,US
64,63,,"1812 N 13TH LOOP RD",,SHELTON,WA,98584,US
65,61,,"939 MOUNTAIN VIEW DR",,SHELTON,WA,98584,US
66,60,,"901 MOUNTAIN VIEW DR",,SHELTON,WA,98584,US
67,62,,"237 PROFESSIONAL WAY",,SHELTON,WA,98584,US
68,68,,"PO BOX 188",,MATLOCK,WA,98560,US
69,69,,"301 E WALLACE KNEELAND BLVD",,SHELTON,WA,98584,US
70,70,,"616 W SIMPSON AVE",,MONTESANO,WA,98563,US
71,71,,"PO BOX 421",,BELFAIR,WA,98528,US
72,72,,"937 W ALPINE WAY",,SHELTON,WA,98584,US
73,73,,"PO BOX 190",,"PACIFIC BEACH",WA,98571,US
74,74,,"2505 OLYMPIC HIGHWAY N NO 400",,SHELTON,WA,98584,US
75,75,,"PO BOX 648",,SEAVIEW,WA,98644,US
76,76,,"PO BOX 494",,SEAVIEW,WA,98644,US
77,77,,"PO BOX 1064",,SHELTON,WA,98584,US
78,78,,"428 W COTA ST",,SHELTON,WA,98584,US
79,79,,"1900 KING ST",,SHELTON,WA,98584,US
80,83,,"N 80 TRIBAL CENTER ROAD",,SHELTON,WA,98584,US
81,84,,"N 80 TRIBAL CENTER ROAD",,SHELTON,WA,98584,US
82,85,,"100 N TRIBAL CENTER ROAD",,SHELTON,WA,98584,US
83,80,,"N 80 TRIBAL CENTER ROAD",,SHELTON,WA,98584,US
84,82,,"N 80 TRIBAL CENTER ROAD",,SHELTON,WA,98584,US
85,81,,"N 80 TRIBAL CENTER ROAD",,SHELTON,WA,98584,US
86,86,,"PO BOX 661",,SHELTON,WA,98584,US
87,87,,"3104 SE OLD OLYMPIC HIGHWAY",,SHELTON,WA,98584,US
88,88,,"PO BOX 2014",,SHELTON,WA,98584,US
89,90,,"2204 PACIFIC AVE N",,"LONG BEACH",WA,98631,US
90,89,,"PO BOX 65",,"SOUTH BEND",WA,98586,US
91,92,,"PO BOX 25",,RAYMOND,WA,98577,US
92,93,,"PO BOX 383",,RAYMOND,WA,98577,US
93,91,,"PO BOX 528",,RAYMOND,WA,98577,US
94,94,,"303 N 4TH ST",,SHELTON,WA,98584,US
95,95,,"280 4TH ST",,BREMERTON,WA,98337,US
96,96,,"PO BOX 1659",,"PORT TOWNSEND",WA,98368,US
97,102,,"PO BOX 353",,BREMERTON,WA,98337,US
98,101,,"PO BOX 1244",,POULSBO,WA,98370,US
99,104,,"PO BOX 721",,SILVERDALE,WA,98383,US
100,99,,"PO BOX 2584",,SILVERDALE,WA,98383,US
101,97,,"PO BOX 1918",,"PORT ORCHARD",WA,98366,US
102,100,,"PO BOX 1244",,POULSBO,WA,98370,US
103,105,,"PO BOX 466",,"PORT ANGELES",WA,98362,US
104,107,,"PO BOX 1414",,SEQUIM,WA,98382,US
105,108,,"PO BOX 2917",,SILVERDALE,WA,98383,US
106,109,,"PO BOX 2552",,BREMERTON,WA,98310,US
107,110,,"PO BOX 250",,KINGSTON,WA,98346,US
108,111,,"PO BOX 250",,KINGSTON,WA,,US
109,112,,"3901 SE MULLENIX RD",,"PORT ORCHARD",WA,98367,US
110,113,,"695 OAK VIEW PL",,SEQUIM,WA,98382,US
111,114,,"695 OAK VIEW PL",,SEQUIM,WA,98382,US
112,115,,"695 OAK VIEW PL",,SEQUIM,WA,98382,US
113,116,,"PO BOX 2189",,BREMERTON,WA,98310,US
114,117,,"PO BOX 193",,MATLOCK,WA,98560,US
115,118,,"940 E JENSEN",,SHELTON,WA,98584,US
116,119,,"201 7TH ST",,HOQUIAM,WA,98550,US
117,120,,"PO BOX 1214",,SILVERDALE,WA,98383,US
118,121,,"4705 JACKSON AVE SE",,"PORT ORCHARD",WA,98366,US
119,122,,"520 E PARK AVE",,"PORT ANGELES",WA,98362,US
120,123,,"1736 NE RIDDELL RD NO 130",,BREMERTON,WA,98310,US
121,124,,"1813 SUMNER AVE",,ABERDEEN,WA,98520,US
122,125,,"597 POINT BROWN AVE NW",,"OCEAN SHORES",WA,98569,US
123,126,,"1815 SUMNER AVE",,ABERDEEN,WA,98520,US
124,127,,"1510 W MAIN ST",,ELMA,WA,98541,US
125,128,,"824 OCEAN SHORES BLVD NW",,"OCEAN SHORES",WA,98569,US
126,129,,"615 8TH ST",,HOQUIAM,WA,98550,US
127,130,,"PO BOX 1437",,ABERDEEN,WA,98520,US
128,131,,"PO BOX 1437",,ABERDEEN,WA,98520,US
129,132,,"100 S I ST SUITE 207",,ABERDEEN,WA,98520,US
130,133,,"PO BOX 171",,"PORT ANGELES",WA,98362,US
131,134,,"112 N LINCOLN ST",,"PORT ANGELES",WA,98362,US
132,135,,"112 N LINCOLN ST",,"PORT ANGELES",WA,98362,US
133,136,,"822 BURWELL ST",,BREMERTON,WA,98337,US
134,137,,"807A BAY ST",,BREMERTON,WA,98337,US
135,138,,"780 NE IVERSON ST",,POULSBO,WA,98370,US
136,139,,"2901 BARBEL ST",,SILVERDALE,WA,98315,US
137,144,,"PO BOX 1090",,"PORT ANGELES",WA,98362,US
138,141,,"PO BOX 1090",,"PORT ANGELES",WA,98362,US
139,142,,"PO BOX 1090",,"PORT ANGELES",WA,98362,US
140,143,,"PO BOX 1090",,"PORT ANGELES",WA,98362,US
141,145,,"345 6TH ST SUITE 300",,BREMERTON,WA,98337,US
142,146,,"328 E 7TH ST",,"PORT ANGELES",WA,98362,US
143,147,,"PO BOX 748",,SILVERDALE,WA,98383,US
144,148,,"PO BOX 4047",,"PORT ANGELES",WA,98363,US
145,153,,"PO BOX 4047",,"PORT ANGELES",WA,98363,US
146,154,,"PO BOX 4047",,"PORT ANGELES",WA,98363,US
147,152,,"PO BOX 4047",,"PORT ANGELES",WA,98363,US
148,151,,"PO BOX 4047",,"PORT ANGELES",WA,98363,US
149,150,,"PO BOX 4047",,"PORT ANGELES",WA,98363,US
150,149,,"PO BOX 4047",,"PORT ANGELES",WA,98362,US
151,155,,"PO BOX 678",,POULSBO,WA,98370,US
152,156,,"736 BAY ST",,"PORT ORCHARD",WA,98366,US
153,157,,"190 S DORA AVE",,BREMERTON,WA,98312,US
154,158,,"PO BOX 278",,CHIMACUM,WA,98325,US
155,159,,"2817 WHEATON WAY SUITE 208",,BREMERTON,WA,98310,US
156,160,,"PO BOX 732",,SILVERDALE,WA,98383,US
157,161,,"4841 AUTO CENTER WAY SUITE 101",,BREMERTON,WA,98312,US
158,162,,"19115 68TH AVE S SUITE H105",,KENT,WA,98032,US
159,163,,"614 DIVISION ST",,"PORT ORCHARD",WA,98366,US
160,164,,"614 DIVISION ST",,"PORT ORCHARD",WA,98366,US
161,166,,"PO BOX 2878",,"Port Angeles",WA,98362,US
162,167,,"PO BOX 2878",,"PORT Angeles",WA,98362,US
163,168,,"PO BOX 2878",,"Port Angeles",WA,98362,US
164,169,,"PO BOX 565",,"PORT TOWNSEND",WA,98368,US
165,175,,"PO BOX 2343",,BREMERTON,WA,98310,US
166,176,,"282 KNECHTEL WAY NE",,"BAINBRIDGE ISLAND",WA,98110,US
167,181,,"8489 MADISON AVE NE",,"BAINBRIDGE ISLAND",WA,98110,US
168,182,,"8489 MADISON AVE NE",,"BAINBRIDGE ISLAND",WA,98110,US
169,180,,"8489 MADISON AVE NE",,"BAINBRIDGE ISLAND",WA,98110,US
170,183,,"8489 MADISON AVE NE",,"BAINBRIDGE ISLAND",WA,98110,US
171,177,,"8489 MADISON AVE NE",,"BAINBRIDGE ISLAND",WA,98110,US
172,178,,"4704 BLAKELY AVE",,"BAINBRIDGE ISLAND",WA,98110,US
173,179,,"8489 MADISON AVE NE",,"BAINBRIDGE ISLAND",WA,98110,US
174,184,,"8489 MADISON AVE NE",,"BAINBRIDGE ISLAND",WA,98110,US
175,185,,"215 ERICKSEN AVE NE",,"BAINBRIDGE ISLAND",WA,98110,US
176,186,,"625 WINSLOW WAY E",,"BAINBRIDGE ISLAND",WA,98110,US
177,187,,"1140 NIPSIC AVE",,BREMERTON,WA,98310,US
178,188,,"PO BOX 27",,TAHUYA,WA,98588,US
179,189,,"223 E 4TH ST SUITE 15",,"PORT ANGELES",WA,98362,US
180,190,,"201 West Patison St Suite B",,"PORT HADLOCK",WA,98339,US
181,191,,"PO BOX 937",,"PORT ANGELES",WA,98362,US
182,192,,"645 4TH ST SUITE 100",,BREMERTON,WA,98337,US
183,194,,"PO BOX 109",,SEKIU,WA,98381,US
184,195,,"PO BOX 337",,"CLALLAM BAY",WA,98326,US
185,193,,"PO BOX 86",,"NEAH BAY",WA,98357,US
186,211,,"PO BOX 8",,SILVERDALE,WA,98383,US
187,208,,"PO BOX 8",,SILVERDALE,WA,98383,US
188,217,,"PO BOX 8",,SILVERDALE,WA,98383,US
189,197,,"PO BOX 8",,SILVERDALE,WA,98383,US
190,207,,"PO BOX 8",,SILVERDALE,WA,98383,US
191,210,,"PO BOX 8",,SILVERDALE,WA,98383,US
192,212,,"PO BOX 8",,SILVERDALE,WA,98383,US
193,213,,"PO BOX 8",,SILVERDALE,WA,98383,US
194,214,,"PO BOX 8",,SILVERDALE,WA,98383,US
195,215,,"PO BOX 8",,SILVERDALE,WA,98383,US
196,216,,"PO BOX 8",,SILVERDALE,WA,98383,US
197,209,,"PO BOX 8",,SILVERDALE,WA,98383,US
198,196,,"PO BOX 8",,SILVERDALE,WA,98383,US
199,206,,"PO BOX 8",,SILVERDALE,WA,98383,US
200,205,,"PO BOX 8",,SILVERDALE,WA,98383,US
201,204,,"PO BOX 8",,SILVERDALE,WA,98383,US
202,203,,"PO BOX 8",,SILVERDALE,WA,98383,US
203,202,,"PO BOX 8",,SILVERDALE,WA,98383,US
204,201,,"PO BOX 8",,SILVERDALE,WA,98383,US
205,200,,"PO BOX 8",,SILVERDALE,WA,98383,US
206,199,,"PO BOX 8",,SILVERDALE,WA,98383,US
207,198,,"PO BOX 8",,SILVERDALE,WA,98383,US
208,218,,"PO BOX 559",,BREMERTON,WA,98337,US
209,220,,"PO BOX 559",,BREMERTON,WA,98337,US
210,221,,"42 RICE ST",,SEKIU,WA,98381,US
211,222,,"328 E 7TH ST",,"PORT ANGELES",WA,98362,US
212,223,,"PO BOX 1827",,SEQUIM,WA,98382,US
213,224,,"610 N 5TH AVE",,SEQUIM,WA,98382,US
214,225,,"PO BOX 698",,RETSIL,WA,98378,US
215,226,,"PO BOX 8175",,RETSIL,WA,98366,US
216,227,,"PO BOX 886",,BREMERTON,WA,98337,US
217,228,,"PO BOX 2229",,"PORT ANGELES",WA,98362,US
218,229,,"5300 NW NEWBERRY HILL RD",,SILVERDALE,WA,98383,US
219,230,,"NO MAILING ADDRESS",,SILVERDALE,WA,98383,US
220,231,,"331 BENTON ST",,"PORT TOWNSEND",WA,98368,US
221,232,,"345 6TH ST SUITE 100",,BREMERTON,WA,98337,US
222,233,,"645 4TH ST SUITE 202",,BREMERTON,WA,98337,US
223,234,,"PO BOX 115",,"NEAH BAY",WA,98357,US
224,235,,"PO BOX 152",,"NEAH BAY",WA,98357,US
225,236,,"PO BOX 410",,"NEAH BAY",WA,98357,US
226,237,,"PO BOX 1401",,"PORT ORCHARD",WA,98366,US
227,241,,"5455 ALMIRA DR NE",,BREMERTON,WA,98311,US
228,242,,"5455 ALMIRA DR NE",,BREMERTON,WA,98311,US
229,243,,"5455 ALMIRA DR NE",,BREMERTON,WA,98311,US
230,238,,"5455 ALMIRA DR NE",,BREMERTON,WA,98311,US
231,239,,"5455 ALMIRA DR NE",,BREMERTON,WA,98311,US
232,240,,"5455 ALMIRA DR NE",,BREMERTON,WA,98311,US
233,244,,"3243 N PERRY AVE",,BREMERTON,WA,98310,US
234,245,,"1025 BURWELL ST",,BREMERTON,WA,98337,US
235,255,,"134 MARION AVE N",,BREMERTON,WA,98312,US
236,254,,"134 MARION AVE N",,BREMERTON,WA,98312,US
237,253,,"134 N MARION AVE",,BREMERTON,WA,98312,US
238,246,,"134 MARION AVE N",,BREMERTON,WA,98312,US
239,252,,"134 MARION AVE N",,BREMERTON,WA,98312,US
240,256,,"134 N MARION AVE",,BREMERTON,WA,98312,US
241,251,,"134 MARION AVE N",,BREMERTON,WA,98312,US
242,250,,"134 MARION AVE N",,BREMERTON,WA,98312,US
243,249,,"134 MARION AVE N",,BREMERTON,WA,98312,US
244,248,,"134 MARION AVE N",,BREMERTON,WA,98312,US
245,247,,"134 MARION AVE N",,BREMERTON,WA,98312,US
246,257,,"911 CARVER ST",,BREMERTON,WA,98312,US
247,259,,"280 MADISON AVE N",,"BAINBRIDGE ISLAND",WA,98110,US
248,260,,"500 E DIVISION ST",,FORKS,WA,98331,US
249,261,,"216 PROSPECT ST",,"PORT ORCHARD",WA,98366,US
250,262,,"250 MADISON ST",,"PORT TOWNSEND",WA,98368,US
251,263,,"1220 LAWRENCE ST",,"PORT TOWNSEND",WA,98368,US
252,264,,"200 NE Moe St",,POULSBO,WA,98370,US
253,265,,"200 NE Moe St",,POULSBO,WA,98370,US
254,266,,"200 NE Moe St",,POULSBO,WA,98370,US
255,268,,"152 W CEDAR ST",,SEQUIM,WA,98382,US
256,267,,"615 N 5TH AVE",,SEQUIM,WA,98382,US
257,269,,"525 N 5TH AVE",,"PORT ANGELES",WA,98362,US
258,270,,"172 DONCEE DR NW",,BREMERTON,WA,98311,US
259,271,,"PO BOX 1220",,"PORT TOWNSEND",WA,98368,US
260,272,,"623 SHERIDAN ST",,"PORT TOWNSEND",WA,98368,US
261,273,,"623 SHERIDAN ST",,"PORT TOWNSEND",WA,98368,US
262,274,,"623 SHERIDAN ST",,"PORT TOWNSEND",WA,98368,US
263,275,,"620 CEDAR AVE",,"PORT HADLOCK",WA,98339,US
264,276,,"1045 10th St",,"PORT TOWNSEND",WA,98368,US
265,277,,"PO BOX 547",,"PORT ANGELES",WA,98362,US
266,278,,"1600 CHESTER AVE",,BREMERTON,WA,98337,US
267,279,,"1600 CHESTER AVE",,BREMERTON,WA,98337,US
268,280,,"1975 NE FUSON RD",,BREMERTON,WA,98311,US
269,281,,"PO BOX 20",,JOYCE,WA,98343,US
270,282,,"9004 WASHINGTON AVE NW",,SILVERDALE,WA,98383,US
271,290,,"1301 SYLVAN WAY",,BREMERTON,WA,98310,US
272,289,,"1270 MADISON AVE N",,"BAINBRIDGE ISLAND",WA,98110,US
273,288,,"612 5TH ST",,BREMERTON,WA,98337,US
274,283,,"PO BOX 519",,KINGSTON,WA,98346,US
275,287,,"31980 LITTLE BOSTON RD NE",,KINGSTON,WA,98346,US
276,291,,"PO BOX 128",,MANCHESTER,WA,98353,US
277,286,,"87 SIDNEY AVE",,"PORT ORCHARD",WA,98366,US
278,285,,"700 NE LINCOLN RD",,POULSBO,WA,98370,US
279,284,,"3450 NW CARLTON ST",,SILVERDALE,WA,98383,US
280,292,,"PO BOX 493",,QUILCENE,WA,98376,US
281,293,,"PO BOX 40",,QUILCENE,WA,98376,US
282,297,,"411 S SPARTAN AVE",,FORKS,WA,98331,US
283,296,,"191 S SPARTAN AVE",,FORKS,WA,98331,US
284,298,,"121 S SPARTAN AVE",,FORKS,WA,98331,US
285,294,,"301 S ELDERBERRY AVE",,FORKS,WA,98331,US
286,295,,"161 EAST E ST",,FORKS,WA,98331,US
287,299,,"223 E 4TH ST SUITE 12",,"PORT ANGELES",WA,98362,US
288,300,,"81 ELKINS RD",,"PORT HADLOCK",WA,98339,US
289,302,,"1137 CALLOW AVE N",,BREMERTON,WA,98312,US
290,303,,"1209 BAY ST",,"PORT ORCHARD",WA,98366,US
291,304,,"18943 CALDART AVE NE",,POULSBO,WA,98370,US
292,305,,"1117 CALLOW AVE N",,BREMERTON,WA,98312,US
293,301,,"1137 CALLOW AVE N",,BREMERTON,WA,98312,US
294,306,,"136 E 8TH ST NO 347",,"PORT ANGELES",WA,98362,US
295,307,,"PO BOX 2114",,SEQUIM,WA,98382,US
296,323,,"939 CAROLINE ST",,"PORT ANGELES",WA,98362,US
297,322,,"927 GEORGIANA ST",,"PORT ANGELES",WA,98362,US
298,321,,"844 N 5TH AVE",,SEQUIM,WA,98382,US
299,318,,"800 N 5TH AVE SUITE 102",,SEQUIM,WA,98382,US
300,319,,"1004 CAROLINE ST",,"PORT ANGELES",WA,98362,US
301,317,,"777 N 5TH AVE SUITE 300",,SEQUIM,WA,98382,US
302,324,,"433 E 8TH ST",,"PORT ANGELES",WA,98362,US
303,308,,"303 W 8TH ST",,"PORT ANGELES",WA,98362,US
304,316,,"800 N 5TH AVE SUITE 101",,SEQUIM,WA,98382,US
305,314,,"923 GEORGIANA ST",,"PORT ANGELES",WA,98362,US
306,313,,"1021 CAROLINE ST",,"PORT ANGELES",WA,98362,US
307,312,,"840 N 5TH AVE SUITE 1400",,SEQUIM,WA,98382,US
308,311,,"930 CAROLINE ST",,"PORT ANGELES",WA,98362,US
309,310,,"840 N 5TH AVE SUITE 1500",,SEQUIM,WA,98382,US
310,309,,"777 N 5TH AVE SUITE 106",,SEQUIM,WA,98382,US
311,325,,"614 DIVISION ST MS5",,"PORT ORCHARD",WA,98366,US
312,326,,"9857 SILVERDALE WAY NW",,SILVERDALE,WA,98383,US
313,328,,"1502 E LAURIDSEN BLVD",,"PORT ANGELES",WA,98362,US
314,327,,"PO BOX 330",,FORKS,WA,98331,US
315,329,,"614 DIVISION ST MS1",,"PORT ORCHARD",WA,98366,US
316,330,,"614 DIVISION ST MS NO 1",,BREMERTON,WA,98311,US
317,331,,"614 DIVISION ST MS NO 1",,BREMERTON,WA,98311,US
318,332,,"614 DIVISION ST MS NO 1",,BREMERTON,WA,98311,US
319,333,,"614 DIVISION ST MS NO 1",,BREMERTON,WA,98311,US
320,334,,"614 DIVISION ST MS NO 1",,BREMERTON,WA,98311,US
321,335,,"PO BOX 565",,"PORT TOWNSEND",WA,98368,US
322,336,,"PO BOX 115",,"NEAH BAY",WA,98357,US
323,337,,"19319 7TH AVE SUITE 104",,POULSBO,WA,98370,US
324,338,,"1006 N H ST",,ABERDEEN,WA,98520,US
325,339,,"602 E 1ST ST",,ABERDEEN,WA,98520,US
326,340,,"PO Box 2169 ",,Silverdale,WA,98383,US
327,341,,"911 CARVER ST",,BREMERTON,WA,98312,US
328,342,,"PO BOX 1150",,"PORT ANGELES",WA,98362,US
329,343,,"1469 BLUE MOUNTAIN RD",,"PORT ANGELES",WA,98362,US
330,344,,"306144 HIGHWAY 101",,BRINNON,WA,98320,US
331,346,,"616 5TH ST",,BREMERTON,WA,98337,US
332,347,,"616 5TH ST",,BREMERTON,WA,98337,US
333,345,,"616 5TH ST",,BREMERTON,WA,98337,US
334,348,,"PO BOX 896",,SEQUIM,WA,98382,US
335,349,,"PO BOX 1261",,POULSBO,WA,98370,US
336,350,,"210 E MARKET ST",,ABERDEEN,WA,98520,US
337,351,,"PO BOX 478",,COSMOPOLIS,WA,98537,US
338,352,,"PO BOX 3011",,ELMA,WA,98541,US
339,353,,"PO BOX 630",,MONTESANO,WA,98563,US
340,354,,"215 10TH ST",,HOQUIAM,WA,98550,US
341,355,,"100 S 3RD ST",,MCCLEARY,WA,98557,US
342,356,,"112 N MAIN ST",,MONTESANO,WA,98563,US
343,357,,"137 W CUITAN ST",,TAHOLAH,WA,98587,US
344,358,,"PO BOX 547",,WESTPORT,WA,98595,US
345,359,,"PO BOX 1479",,"PORT ANGELES",WA,98362,US
346,360,,"PO BOX 1479",,"PORT ANGELES",WA,98362,US
347,361,,"PO BOX 658",,"PORT TOWNSEND",WA,98368,US
348,362,,"PO BOX 5347",,BREMERTON,WA,98312,US
349,363,,"3451 WHEATON WAY",,BREMERTON,WA,98310,US
350,373,,"834 SHERIDAN AVE",,"PORT TOWNSEND",WA,98368,US
351,372,,"934 SHERIDAN AVE",,"PORT TOWNSEND",WA,98368,US
352,371,,"PO BOX 912",,"PORT TOWNSEND",WA,98368,US
353,370,,"PO BOX 912",,"PORT TOWNSEND",WA,98368,US
354,369,,"2500 W SIMS WAY SUITE 300",,"PORT TOWNSEND",WA,98368,US
355,374,,"915 SHERIDAN ST SUITE B103",,"PORT TOWNSEND",WA,98368,US
356,368,,"9481 OAK BAY RD SUITE A",,"PORT LUDLOW",WA,98365,US
357,367,,"834 SHERIDAN AVE",,"PORT TOWNSEND",WA,98368,US
358,366,,"934 SHERIDAN AVE",,"PORT TOWNSEND",WA,98368,US
359,364,,"834 SHERIDAN AVE",,"PORT TOWNSEND",WA,98368,US
360,365,,"PO BOX 8",,QUILCENE,WA,98376,US
361,375,,"645 4TH ST SUITE 204",,BREMERTON,WA,98337,US
362,376,,"PO BOX 845",,"PORT HADLOCK",WA,98339,US
363,377,,"600 E PARK AVE",,"PORT ANGELES",WA,98362,US
364,381,,"345 6TH ST SUITE 600",,BREMERTON,WA,98337,US
365,378,,"550 PARK AVE",,BREMERTON,WA,98337,US
366,379,,"100 OYSTER BAY AVE N",,BREMERTON,WA,98312,US
367,384,,"223 E 4TH ST",,"PORT ANGELES",WA,98362,US
368,382,,"502 E DIVISION ST",,FORKS,WA,98331,US
369,383,,"223 E 4TH ST SUITE 7",,"PORT ANGELES",WA,98362,US
370,385,,"302 S FRANCIS ST",,"PORT ANGELES",WA,98362,US
371,386,,"PO BOX 1637",,"PORT TOWNSEND",WA,98368,US
372,387,,"7625 CENTRAL VALLEY RD",,BREMERTON,WA,98311,US
373,388,,"500 E DIVISION ST",,FORKS,WA,98331,US
374,389,,"614 DIVISION ST MS37",,"PORT ORCHARD",WA,98366,US
375,390,,"614 DIVISION ST MS33",,"PORT ORCHARD",WA,98366,US
376,391,,"PO BOX 1150",,"PORT ANGELES",WA,98362,US
377,392,,"1925 BLAINE ST SUITE 100",,"PORT TOWNSEND",WA,98368,US
378,393,,"609 W WASHINGTON ST SUITE 16",,SEQUIM,WA,98382,US
379,394,,"PO BOX 5030",,BREMERTON,WA,98312,US
380,395,,"PO BOX 1885",,"PORT ANGELES",WA,98362,US
381,404,,"216 E 4TH ST",,"PORT ANGELES",WA,98362,US
382,402,,"924 W 9TH ST",,"PORT ANGELES",WA,98363,US
383,401,,"1139 W 14TH ST",,"PORT ANGELES",WA,98363,US
384,400,,"25 RIFE RD",,"PORT ANGELES",WA,98363,US
385,399,,"2505 S WASHINGTON ST",,"PORT ANGELES",WA,98362,US
386,396,,"1822 W 7TH ST",,"PORT ANGELES",WA,98363,US
387,398,,"218 E 12TH ST",,"PORT ANGELES",WA,98362,US
388,405,,"106 MONROE RD",,"PORT ANGELES",WA,98362,US
389,397,,"905 W 9TH ST",,"PORT ANGELES",WA,98363,US
390,406,,"PO BOX 1795",,"PORT TOWNSEND",WA,98368,US
391,407,,"PO BOX 336",,"CLALLAM BAY",WA,98326,US
392,415,,"18360 CALDART AVE NE",,POULSBO,WA,98370,US
393,414,,"18360 CALDART AVE NE",,POULSBO,WA,98370,US
394,413,,"18360 CALDART AVE NE",,POULSBO,WA,98370,US
395,417,,"18360 CALDART AVE NE",,POULSBO,WA,98370,US
396,409,,"18360 CALDART AVE NE",,POULSBO,WA,98370,US
397,412,,"18360 CALDART AVE NE",,POULSBO,WA,98370,US
398,411,,"PO BOX 258",,SUQUAMISH,WA,98392,US
399,408,,"18360 CALDART AVE NE",,POULSBO,WA,98370,US
400,410,,"18360 CALDART AVE NE",,POULSBO,WA,98370,US
401,418,,"18360 CALDART AVE NE",,POULSBO,WA,98370,US
402,419,,"1610 Blaine St",,"PORT TOWNSEND",WA,98368,US
403,420,,"150 VAN NESS ST",,"PORT TOWNSEND",WA,98368,US
404,421,,"3939 SAN JUAN AVE",,"PORT TOWNSEND",WA,98368,US
405,422,,"1637 GRANT ST",,"PORT TOWNSEND",WA,98368,US
406,423,,"PO BOX 281",,QUILCENE,WA,98376,US
407,424,,"PO BOX 1453",,SEQUIM,WA,98382,US
408,425,,"503 N SEQUIM AVE",,SEQUIM,WA,98382,US
409,429,,"350 W FIR ST",,SEQUIM,WA,98382,US
410,430,,"171 CARLSBORG RD",,SEQUIM,WA,98382,US
411,428,,"301 W HENDRICKSON RD",,SEQUIM,WA,98382,US
412,427,,"601 N SEQUIM AVE",,SEQUIM,WA,98382,US
413,426,,"221 W FIR ST",,SEQUIM,WA,98382,US
414,432,,"2689 HOOVER AVE SE",,"PORT ORCHARD",WA,98366,US
415,446,,"2689 HOOVER AVE SE",,"PORT ORCHARD",WA,98366,US
416,447,,"2689 HOOVER AVE SE",,"PORT ORCHARD",WA,98366,US
417,445,,"2689 HOOVER AVE SE",,"PORT ORCHARD",WA,98366,US
418,444,,"2689 HOOVER AVE SE",,"PORT ORCHARD",WA,98366,US
419,443,,"2689 HOOVER AVE SE",,"PORT ORCHARD",WA,98366,US
420,442,,"2689 HOOVER AVE SE",,"PORT ORCHARD",WA,98366,US
421,441,,"2689 HOOVER AVE SE",,"PORT ORCHARD",WA,98366,US
422,440,,"2689 HOOVER AVE SE",,"PORT ORCHARD",WA,98366,US
423,448,,"2689 HOOVER AVE SE",,"PORT ORCHARD",WA,98366,US
424,431,,"2689 HOOVER AVE SE",,"PORT ORCHARD",WA,98366,US
425,439,,"2689 HOOVER AVE SE",,"PORT ORCHARD",WA,98366,US
426,438,,"2689 HOOVER AVE SE",,"PORT ORCHARD",WA,98366,US
427,437,,"2689 HOOVER AVE SE",,"PORT ORCHARD",WA,98366,US
428,436,,"2689 HOOVER AVE SE",,"PORT ORCHARD",WA,98366,US
429,435,,"2689 HOOVER AVE SE",,"PORT ORCHARD",WA,98366,US
430,433,,"2689 HOOVER AVE SE",,"PORT ORCHARD",WA,98366,US
431,434,,"2689 HOOVER AVE SE",,"PORT ORCHARD",WA,98366,US
432,449,,"223 E 4TH ST SUITE 12",,"PORT ANGELES",WA,98362,US
433,450,,"223 E 4TH ST SUITE 20",,"PORT ANGELES",WA,98362,US
434,451,,"PO BOX 3124",,"PORT ANGELES",WA,98363,US
435,452,,"9167 DICKEY RD NW",,SILVERDALE,WA,98383,US
436,453,,"200 NE MOE ST",,POULSBO,WA,98370,US
437,454,,"PO BOX 11464",,"BAINBRIDGE ISLAND",WA,98110,US
438,455,,"PO BOX 39",,"PORT ANGELES",WA,98362,US
439,456,,"PO BOX 39",,"PORT ANGELES",WA,98362,US
440,457,,"911 PARK AVE",,BREMERTON,WA,98337,US
441,458,,"PO BOX 11391",,"BAINBRIDGE ISLAND",WA,98110,US
442,459,,"723 NE RIDDELL RD SUITE A",,BREMERTON,WA,98310,US
443,461,,"615 SHERIDAN ST",,"PORT TOWNSEND",WA,98368,US
444,462,,"615 SHERIDAN ST",,"PORT TOWNSEND",WA,98368,US
445,460,,"615 SHERIDAN ST",,"PORT TOWNSEND",WA,98368,US
446,464,,"223 E 4TH ST SUITE 14",,"PORT ANGELES",WA,98362,US
447,465,,"140 C ST",,FORKS,WA,98331,US
448,463,,"223 E 4TH ST SUITE 14",,"PORT ANGELES",WA,98362,US
449,466,,"345 6TH ST SUITE 550",,BREMERTON,WA,98337,US
450,467,,"1 BOONE RD",,BREMERTON,WA,98312,US
451,468,,"2050 BARB ST SUITE A",,SILVERDALE,WA,98315,US
452,469,,"PO BOX 1213",,SILVERDALE,WA,98383,US
453,470,,"PO BOX 1066",,"PORT TOWNSEND",WA,98368,US
454,471,,"PO BOX 1646",,"PORT ANGELES",WA,98362,US
455,473,,"1033 OLD BLYN HIGHWAY",,SEQUIM,WA,98382,US
456,472,,"808 N 5TH AVE",,SEQUIM,WA,98382,US
457,474,,"40 SETON RD SUITE A",,"PORT TOWNSEND",WA,98368,US
458,475,,"40 SETON RD SUITE A",,"PORT TOWNSEND",WA,98368,US
459,476,,"40 SETON RD SUITE A",,"PORT TOWNSEND",WA,98368,US
460,477,,"40 SETON RD SUITE A",,"PORT TOWNSEND",WA,98368,US
461,479,,"JACKSON PARK YOUTH CENTER",,BREMERTON,WA,98312,US
462,478,,"4168 GREENFISH COURT",,SILVERDALE,WA,98315,US
463,483,,"PO BOX 960",,BREMERTON,WA,98337,US
464,484,,"19917 7TH AVE NE SUITE 205",,POULSBO,WA,98370,US
465,482,,"320 S KITSAP BLVD",,"PORT ORCHARD",WA,98366,US
466,481,,"PO BOX 960",,BREMERTON,WA,98337,US
467,480,,"PO BOX 960",,BREMERTON,WA,98337,US
468,485,,"1210 E FRONT ST SUITE C",,"PORT ANGELES",WA,98362,US
469,486,,"1615 W SIMS WAY",,"PORT TOWNSEND",WA,98368,US
470,487,,"ST PAULS EPISCOPAL CHURCH",,BREMERTON,WA,98310,US
471,488,,"1601 E FRONT ST SUITE B",,"PORT ANGELES",WA,98362,US
472,489,,"216 S FRANCIS ST",,"PORT ANGELES",WA,98362,US
473,490,,"10876 NW MYHRE PL SUITE 116",,SILVERDALE,WA,98383,US
474,492,,"1026 SIDNEY AVE SUITE 110",,"PORT ORCHARD",WA,98366,US
475,493,,"PO BOX 11699",,TACOMA,WA,98411,US
476,494,,"PO BOX 45452",,OLYMPIA,WA,98504,US
477,495,,"PO BOX 11699",,TACOMA,WA,98411,US
478,496,,"PO BOX 45451",,OLYMPIA,WA,98501,US
479,500,,"645 4TH ST SUITE 202A",,BREMERTON,WA,98337,US
480,499,,"285 5TH ST SUITE 2",,BREMERTON,WA,98337,US
481,497,,"PO Box 5269",,BREMERTON,WA,98312,US
482,498,,"250 S CAMBRIAN WAY",,BREMERTON,WA,98312,US
483,501,,"223 E 4TH ST SUITE 12",,"PORT ANGELES",WA,98362,US
484,502,,"530 BOGACHIEL WAY",,FORKS,WA,98331,US
485,503,,"PO BOX 296",,"CLALLAM BAY",WA,98326,US
486,504,,"390 FOUNDERS WAY",,FORKS,WA,98331,US
487,506,,"24 LEE CHATFIELD AVE",,SEQUIM,WA,98382,US
488,507,,"PO BOX 67",,FORKS,WA,98331,US
489,510,,"2603 S FRANCIS ST",,"PORT ANGELES",WA,98362,US
490,509,,"PO Box 2109",,"PORT TOWNSEND",WA,98368,US
491,508,,"351 Founders Way #32",,Forks,WA,98331,US
492,511,,"830 W LAURIDSEN BLVD",,"PORT ANGELES",WA,98363,US
493,512,,"1740 NE RIDDELL RD SUITE 180",,BREMERTON,WA,98310,US
494,513,,"26642 MILLER BAY RD NE",,KINGSTON,WA,98346,US
495,514,,"PO BOX 927",,"PORT ANGELES",WA,98362,US
496,515,,"PO BOX 927",,"PORT ANGELES",WA,98362,US
497,516,,"PO Box 249",,"PORT ANGELES",WA,98362,US
498,517,,"PO Box 249",,"PORT ANGELES",WA,98362,US
499,520,,"10001 MICKELBERRY RD NW",,SILVERDALE,WA,98383,US
500,518,,"1700 SE MILE HILL DR",,"PORT ORCHARD",WA,98366,US
501,519,,"4209 WHEATON WAY",,BREMERTON,WA,98310,US
502,522,,"105 NATIONAL AVE N",,BREMERTON,WA,98312,US
503,521,,"105 NATIONAL AVE N",,BREMERTON,WA,98312,US
504,523,,"PO BOX 2196",,FORKS,WA,98331,US
505,524,,"5112 NW TAYLOR RD",,BREMERTON,WA,98312,US
506,525,,"PO BOX 118",,"PORT TOWNSEND",WA,98368,US
507,526,,"620 CEDAR AVE",,"PORT HADLOCK",WA,98339,US
508,527,,"60 WASHINGTON AVE SUITE 200",,BREMERTON,WA,98337,US
509,528,,"PO BOX 11253",,"BAINBRIDGE ISLAND",WA,98110,US
510,529,,"Cupola House",,"Port Townsend",WA,98368,US
511,530,,"614 DIVISION ST MS23",,"PORT ORCHARD",WA,98366,US
512,531,,"614 DIVISION ST",,"PORT ORCHARD",WA,98366,US
513,532,,"2121 S STATE ST",,TACOMA,WA,98405,US
514,533,,"1138 SW OLD CLIFTON RD",,"PORT ORCHARD",WA,98366,US
515,540,,"2851 LOWER ELWHA RD",,"PORT ANGELES",WA,98363,US
516,539,,"243511 HWY 101",,"PORT ANGELES",WA,98363,US
517,538,,"322 STRATTON RD",,"PORT ANGELES",WA,98363,US
518,537,,"933 E 1ST ST",,"PORT ANGELES",WA,98362,US
519,536,,"22 KWITSEN DR",,"PORT ANGELES",WA,98362,US
520,534,,"243511 HWY 101 WEST",,"PORT ANGELES",WA,98363,US
521,535,,"2851 LOWER ELWHA RD",,"PORT ANGELES",WA,98363,US
522,542,,"PO BOX 404",,SEQUIM,WA,98382,US
523,543,,"PO BOX 1466",,"PORT HADLOCK",WA,98339,US
524,544,,"PO BOX 2235",,BREMERTON,WA,98310,US
525,545,,"909 E GEORGIANA ST",,"PORT ANGELES",WA,98362,US
526,546,,"909 E GEORGIANA ST",,"PORT ANGELES",WA,98362,US
527,547,,"20730 BOND RD NE",,POULSBO,WA,98370,US
528,550,,"120 S DEWEY ST",,BREMERTON,WA,98314,US
529,549,,"NBK BREMERTON BLDG 853",,BREMERTON,WA,98314,US
530,553,,"PO BOX 1034",,"PORT ANGELES",WA,98362,US
531,554,,"139 W 8TH ST",,"PORT ANGELES",WA,98362,US
532,559,,"118 E 8TH ST",,"PORT ANGELES",WA,98362,US
533,558,,"138 W 2ND ST",,"PORT ANGELES",WA,98362,US
534,557,,"118 E 8TH ST",,"PORT ANGELES",WA,98362,US
535,555,,"205 E 5TH STREET",,"PORT ANGELES",WA,98362,US
536,556,,"118 E 8TH ST",,"PORT ANGELES",WA,98362,US
537,560,,"614 DIVISION ST MS 23",,"PORT ORCHARD",WA,98366,US
538,561,,"31912 LITTLE BOSTON NE",,KINGSTON,WA,98346,US
539,562,,"32014 LITTLE BOSTON RD NE",,KINGSTON,WA,98346,US
540,563,,"7550 LITTLE BOSTON RD",,KINGSTON,WA,98346,US
541,564,,"32020 LITTLE BOSTON RD NE",,KINGSTON,WA,98346,US
542,565,,"PO BOX 279",,"LA PUSH",WA,98350,US
543,566,,"PO BOX 189",,"LA PUSH",WA,98350,US
544,567,,"21 QUILEUTE ST",,"LA PUSH",WA,98350,US
545,568,,"847 N SEQUIM AVE ROOM 401",,SEQUIM,WA,98382,US
546,569,,"EDIZ HOOK RD",,"PORT ANGELES",WA,98362,US
547,570,,"PO BOX 1145",,"PORT ORCHARD",WA,98366,US
548,571,,"11701 RIDGEPOINT DR NW",,SILVERDALE,WA,98383,US
549,572,,"138 W 1ST ST RM 113",,"PORT ANGELES",WA,98362,US
550,573,,"PO BOX 1591",,SEQUIM,WA,98382,US
551,574,,"PO BOX 1591",,SEQUIM,WA,98382,US
552,575,,"2483 MITCHELL RD",,"PORT ORCHARD",WA,98366,US
553,577,,"PO Box 5359",,BREMERTON,WA,98312,US
554,576,,"PO BOX 1159",,"PORT TOWNSEND",WA,98368,US
555,578,,"1300 SYLVAN WAY",,BREMERTON,WA,98310,US
556,579,,"228 W 1ST ST SUITE A",,"PORT ANGELES",WA,98362,US
557,580,,"207 W PATISON ST",,"PORT HADLOCK",WA,98339,US
558,581,,"PO BOX 498",,SUQUAMISH,WA,98392,US
559,582,,"PO BOX 12258",,SUQUAMISH,WA,98392,US
560,583,,"PO BOX 498",,SUQUAMISH,WA,98392,US
561,584,,"5283 NE TOTTEN RD",,SUQUAMISH,WA,98392,US
562,585,,"8711 CORALIE PL NW",,BREMERTON,WA,98311,US
563,586,,"101 NATIONAL AVE N",,BREMERTON,WA,98312,US
564,587,,"1415 LUMSDEN RD",,"PORT ORCHARD",WA,98367,US
565,588,,"PO BOX 3550",,Silverdale,WA,98383,US
566,589,,"530 BOGACHIEL WAY",,FORKS,WA,98331,US
567,590,,"PO BOX 1517",,POULSBO,WA,98370,US
568,591,,"PO BOX 1517",,POULSBO,WA,98370,US
569,592,,"PO BOX 118",,FORKS,WA,98331,US
570,593,,"102 E 5TH ST",,"PORT ANGELES",WA,98362,US
571,594,,"323 N FIFTH AVE",,SEQUIM,WA,98382,US
572,597,,"8895 MADISON AVE N",,"BAINBRIDGE ISLAND",WA,98110,US
573,595,,"12985 NE PHELPS RD",,"BAINBRIDGE ISLAND",WA,98110,US
574,596,,"7934 NE BUCKLIN HILL RD",,"BAINBRIDGE ISLAND",WA,98110,US
575,598,,"911 NE LIBERTY ROAD",,POULSBO,WA,98370,US
576,599,,"1974 FIRCREST DR SE",,"PORT ORCHARD",WA,98366,US
577,600,,"546 BAY ST",,"PORT ORCHARD",WA,98366,US
578,601,,"PO BOX 1734",,ABERDEEN,WA,98520,US
579,602,,"PO BOX 1734",,ABERDEEN,WA,98520,US
580,609,,"2520 CHERRY AVE",,BREMERTON,WA,98310,US
581,608,,"1800 NW MYHRE RD",,SILVERDALE,WA,98383,US
582,607,,"450 SOUTH KITSAP BLVD",,"PORT ORCHARD",WA,98366,US
583,603,,"21 NE ROMANCE RD",,BELFAIR,WA,98528,US
584,611,,"1800 NW MYHRE RD",,SILVERDALE,WA,98383,US
585,610,,"9633 LEVIN RD SUITE 103",,SILVERDALE,WA,98383,US
586,606,,"ST PAULS EPISCOPAL CHURCH",,BREMERTON,WA,98310,US
587,612,,"PO BOX 824",,BREMERTON,WA,98337,US
588,613,,"225 NW LINDVIG WAY NO 9",,POULSBO,WA,98370,US
589,614,,"7926 SE PROMENADE LN",,"PORT ORCHARD",WA,98366,US
590,615,,"345 KNECHTEL WAY NE SUITE 111",,"BAINBRIDGE ISLAND",WA,98110,US
591,616,,"345 KNECHTEL WAY NE SUITE 111",,"BAINBRIDGE ISLAND",WA,98110,US
592,617,,"20730 BOND RD NE SUITE 108",,POULSBO,WA,98370,US
593,618,,"103 N CALLOW AVE",,BREMERTON,WA,98312,US
594,619,,"1191 NW TAHOE LN",,SILVERDALE,WA,98383,US
595,620,,"PO BOX 3428",,SILVERDALE,WA,98383,US
596,621,,"PO BOX 3428",,SILVERDALE,WA,98383,US
597,622,,"PO BOX 10195",,"BAINBRIDGE ISLAND",WA,98110,US
598,623,,"365 ERICKSEN AVE NE SUITE 311",,"BAINBRIDGE ISLAND",WA,98110,US
599,624,,"2916 NW BUCKLIN HILL RD  NO 472",,BREMERTON,WA,98337,US
600,625,,"10049 KITSAP MALL BLVD STE 257",,SILVERDALE,WA,98383,US
601,626,,"PO BOX 1691",,"PORT ORCHARD",WA,98366,US
602,627,,"1730 POTTERY AVE SUITE 120",,"PORT ORCHARD",WA,98366,US
603,628,,"7500 OLD MILITARY RD SUITE 103",,BREMERTON,WA,98311,US
604,629,,"7500 OLD MILITARY RD SUITE 103",,BREMERTON,WA,98311,US
605,630,,"PO BOX 11730",,"BAINBRIDGE ISLAND",WA,98110,US
606,631,,"634 E 8TH",,"PORT ANGELES",WA,98362,US
607,632,,"225 NW LINDVIG WY NO 10",,POULSBO,WA,98370,US
608,633,,"219 C PATISON SUITE E",,"PORT HADLOCK",WA,98339,US
609,634,,"1730 POTTERY AVE SUITE 120",,"PORT ORCHARD",WA,98366,US
610,635,,"PO BOX 37",,"PORT HADLOCK",WA,98339,US
611,636,,"FAGERUD RD SE",,OLALLA,WA,98359,US
612,637,,"1879 25TH ST",,"PORT TOWNSEND",WA,98368,US
613,638,,"PO BOX 3291",,SILVERDALE,WA,98383,US
614,639,,"820 SIMPSON AVE",,HOQUIAM,WA,98550,US
615,640,,"1335 MOUNTAIN VIEW RD",,POULSBO,WA,98370,US
616,641,,"5083 TAYLOR AVE NE",,"BAINBRIDGE ISLAND",WA,98110,US
617,642,,"PO BOX 1936",,"PORT ORCHARD",WA,98366,US
618,645,,"10 SE SQUAXIN LANE",,SHELTON,WA,98584,US
619,644,,"PO BOX 477",,ELMA,WA,98541,US
620,643,,"3670 SE OLD OLYMPIC HIGHWAY",,SHELTON,WA,98584,US
621,646,,"345 KNECHTEL WAY SUITE 102",,"BAINBRIDGE ISLAND",WA,98110,US
622,647,,"785 ERICKSEN AVE NE SUITE 117",,"BAINBRIDGE ISLAND",WA,98110,US
623,648,,"9481 BAYSHORE DR NO 204",,SILVERDALE,WA,98383,US
624,649,,"1809 SHERIDAN ST",,"PORT TOWNSEND",WA,98368,US
625,650,,"4841 AUTO CENTER WAY SUITE 203",,BREMERTON,WA,98312,US
626,651,,"PO BOX 936",,"PORT ANGELES",WA,98362,US
627,652,,"PO BOX 936",,"PORT ANGELES",WA,98362,US
628,654,,"PO BOX 3416",,SILVERDALE,WA,98383,US
629,655,,"301 PACIFIC AVE",,BREMERTON,WA,98337,US
630,656,,"1730 POTTERY AVE SUITE 120",,"PORT ORCHARD",WA,98366,US
631,657,,"355 ERICKSON AVE SUITE 413",,"BAINBRIDGE ISLAND",WA,98110,US
632,658,,"PO BOX 1001",,"PORT TOWNSEND",WA,98368,US
633,659,,"PO BOX 578",,KINGSTON,WA,98346,US
634,660,,"PO BOX 1910",,Shelton,WA,98584,US
635,661,,"7817 12TH AVE NE",,SEATTLE,WA,98115,US
636,662,,"9125 CENTRAL VALLEY RD",,BREMERTON,WA,98311,US
637,663,,"405 S PEABODY ST",,"PORT ANGELES",WA,98362,US
638,664,,"1740 NE RIDDELL RD SUITE 314",,BREMERTON,WA,98310,US
639,665,,"686 LAKE ST SUITE 400",,"PORT TOWNSEND",WA,98368,US
640,666,,"77 W NELSON RD",,SEQUIM,WA,98382,US
641,667,,"60 AMBER LN",,SEQUIM,WA,98382,US
642,668,,"700 W MARKET ST",,ABERDEEN,WA,98520,US
643,669,,"PO BOX 2011",,COSMOPOLIS,WA,98537,US
644,670,,"625 8TH ST",,HOQUIAM,WA,98550,US
645,671,,"PO BOX 310",,"LONG BEACH",WA,98631,US
646,672,,"PO BOX 795",,"LONG BEACH",WA,98631,US
647,673,,"13375 W CLOQUALLUM RD",,ELMA,WA,98541,US
648,674,,"PO BOX 354",,HOODSPORT,WA,98548,US
649,675,,"PO BOX 743",,SHELTON,WA,98584,US
650,676,,"240 N STANDSTILL DR",,HOODSPORT,WA,98548,US
651,677,,"PO BOX 277",,BELFAIR,WA,98528,US
652,678,,"PO BOX 129",,GRAPEVIEW,WA,98546,US
653,679,,"SE 2970 ARCADIA RD",,SHELTON,WA,98584,US
654,680,,"170 E ROAD RUNNER DR",,SHELTON,WA,98584,US
655,681,,"PO BOX 1037",,SHELTON,WA,98584,US
656,682,,"100 S 3RD ST",,MCCLEARY,WA,98557,US
657,683,,"310 E PIONEER AVE",,MONTESANO,WA,98563,US
658,684,,"PO BOX 100",,"OCEAN SHORES",WA,98569,US
659,685,,"577 POINT BROWN AVENUE NW",,"OCEAN SHORES",WA,98569,US
660,686,,"PO BOX 27",,"SOUTH BEND",WA,98586,US
661,687,,"318 2ND ST NE",,"LONG BEACH",WA,98631,US
662,688,,"212 COMMERCIAL ST",,RAYMOND,WA,98577,US
663,689,,"233 2ND ST",,RAYMOND,WA,98577,US
664,690,,"PO BOX 1610",,SHELTON,WA,98584,US
665,691,,"PO DRAWER 9",,"SOUTH BEND",WA,98586,US
666,692,,"PO DRAWER 9",,"SOUTH BEND",WA,98586,US
667,693,,"PO BOX 39",,UNION,WA,98592,US
668,694,,"PO BOX 505",,WESTPORT,WA,98595,US
669,695,,"5455 ALMIRA DR NE",,BREMERTON,WA,98311,US
670,696,,"PO BOX 188",,CARLSBORG,WA,98324,US
671,697,,"PO BOX 1672",,"PORT TOWNSEND",WA,98368,US
672,699,,"PO BOX 2161",,ABERDEEN,WA,98520,US
673,700,,"310 W SPRUCE ST SUITE 212",,MONTESANO,WA,98563,US
674,701,,"PO BOX 101",,"SOUTH BEND",WA,98586,US
675,702,,"7013 SANDRIDGE RD",,"LONG BEACH",WA,98631,US
676,703,,"PO BOX 1065",,MCCLEARY,WA,98557,US
677,704,,"153 JOHNS COURT",,SHELTON,WA,98584,US
678,705,,"PO BOX 311",,Raymond,WA,98577,US
679,706,,"PO BOX 1441",,SILVERDALE,WA,98383,US
680,707,,"PO BOX 2176",,BREMERTON,WA,98337,US
681,708,,"1110 JEFFERSON ST",,"PORT TOWNSEND",WA,98368,US
682,709,,"PO BOX 410",,"PORT TOWNSEND",WA,98368,US
683,710,,"724 W RAILROAD AVE",,SHELTON,WA,98584,US
684,711,,"301 LOPEZ AVE",,"PORT ANGELES",WA,98362,US
685,712,,"PO BOX 5209",,BREMERTON,WA,98312,US
686,715,,"2210 S PEABODY ST",,"PORT ANGELES",WA,98362,US
687,716,,"630 N SEQUIM AVE",,"PORT ANGELES",WA,98362,US
688,714,,"PO BOX 1817",,FORKS,WA,98331,US
689,713,,"PO BOX 106",,"CLALLAM BAY",WA,98326,US
690,717,,"228 W 1ST ST SUITE J",,"PORT ANGELES",WA,98362,US
691,718,,"PO BOX 1742",,FORKS,WA,98331,US
692,719,,"PO BOX 1827",,SEQUIM,WA,98382,US
693,720,,"228 W 1ST ST SUITE J",,"PORT ANGELES",WA,98362,US
694,721,,"328 E 7TH ST",,"PORT ANGELES",WA,98362,US
695,722,,"PO BOX 1913",,"PORT ANGELES",WA,98362,US
696,723,,"540 E 8TH ST",,"PORT ANGELES",WA,98362,US
697,724,,"120 S Dewey St Bldg 491",,Bremerton,WA,98314,US
698,725,,"1001 Tautog Circle",,SILVERDALE,WA,98315,US
699,727,,"286 4TH ST",,BREMERTON,WA,98337,US
700,728,,"PO BOX 11173",,"BAINBRIDGE ISLAND",WA,98110,US
701,729,,"PO BOX 126",,SEQUIM,WA,98382,US
702,730,,"PO BOX 1936",,"PORT ORCHARD",WA,98366,US
703,733,,"PO BOX 1787",,FORKS,WA,98331,US
704,731,,"PO BOX 2998",,"PORT ANGELES",WA,98362,US
705,732,,"PO Box 506",,"Port Hadlock",WA,98339,US
706,734,,"420 SE STATE ROUTE 3",,SHELTON,WA,98584,US
707,735,,"PO BOX 339",,SHELTON,WA,98584,US
708,736,,"2525 6TH ST SUITE B",,BREMERTON,WA,98312,US
709,737,,"PO BOX 133",,WESTPORT,WA,98595,US
710,738,,"PO BOX 1895",,ABERDEEN,WA,98520,US
711,739,,"2109 SUMNER AVE SUITE 200",,ABERDEEN,WA,98520,US
712,740,,"PO BOX 153",,ABERDEEN,WA,98520,US
713,741,,"1128 E FRONT ST",,"PORT ANGELES",WA,98368,US
714,742,,"2200 W SIMS WAY SUITE 101",,"PORT TOWNSEND",WA,98368,US
715,743,,"PO BOX 207",,CHIMACUM,WA,98325,US
716,744,,"4207 WHEATON WAY SUITE C",,BREMERTON,WA,98310,US
717,745,,"2326 WHEATON WAY",,BREMERTON,WA,98310,US
718,746,,"500 PACIFIC AVE SUITE 400",,BREMERTON,WA,98337,US
719,747,,"109 OLDING RD SUITE 100",,BREMERTON,WA,98312,US
720,748,,"4545 AUTO CENTER WAY B1",,BREMERTON,WA,98312,US
721,749,,"18490 SUQUAMISH WAY SUITE 105",,SUQUAMISH,WA,98392,US
722,752,,"PO BOX 1062",,TRACYTON,WA,98393,US
723,751,,"PO BOX 1062",,TRACYTON,WA,98393,US
724,757,,"629 W DAYTON AIRPORT RD",,SHELTON,WA,98584,US
725,755,,"3111 PACIFIC AVE",,HOQUIAM,WA,98550,US
726,754,,"797 STATE ROUTE 4",,NASELLE,WA,98638,US
727,753,,"62 OLD OLYMPIC HIGHWAY",,"PORT ANGELES",WA,98362,US
728,759,,"2109 SUMNER AVE SUITE 203",,ABERDEEN,WA,98520,US
729,760,,"281 LANE DE CHANTAL NO A",,"PORT TOWNSEND",WA,98368,US
730,761,,"1007 SCOTT ST SUITE F",,BREMERTON,WA,98337,US
731,762,,"1912 W 18TH ST",,"PORT ANGELES",WA,98363,US
732,763,,"PO BOX 127",,POULSBO,WA,98370,US
733,764,,"PO BOX 26",,"SOUTH BEND",WA,98586,US
734,765,,"7013 SANDRIDGE RD",,"LONG BEACH",WA,98631,US
735,766,,"525 W COTA STREET",,SHELTON,WA,98584,US
736,767,,"PO BOX 1610",,SHELTON,WA,98584,US
737,768,,"PO BOX 310",,"LONG BEACH",WA,98631,US
738,769,,"230 2ND ST",,RAYMOND,WA,98577,US
739,770,,"300 1ST ST",,RAYMOND,WA,98577,US
740,771,,"PO BOX 9",,"SOUTH BEND",WA,98586,US
741,772,,"200 E MARKET ST",,ABERDEEN,WA,98520,US
742,773,,"210 E MARKET ST",,ABERDEEN,WA,98520,US
743,774,,"1101 W HERON ST",,ABERDEEN,WA,98520,US
744,775,,"PO BOX 2007",,COSMOPOLIS,WA,98537,US
745,776,,"PO BOX 478",,COSMOPOLIS,WA,98537,US
746,777,,"PO BOX 2007",,COSMOPOLIS,WA,98537,US
747,778,,"PO BOX 3005",,ELMA,WA,98541,US
748,779,,"PO BOX 2013",,ELMA,WA,98541,US
749,780,,"PO BOX E",,ELMA,WA,98541,US
750,781,,"609 8TH ST",,HOQUIAM,WA,98550,US
751,782,,"100 S 3RD ST",,MCCLEARY,WA,98557,US
752,783,,"112 NORTH MAIN ST",,MONTESANO,WA,98563,US
753,784,,"PO BOX D",,OAKVILLE,WA,98568,US
754,785,,"PO BOX 909",,"OCEAN SHORES",WA,98569,US
755,786,,"PO BOX 909",,"OCEAN SHORES",WA,98569,US
756,787,,"PO BOX 909",,"OCEAN SHORES",WA,98569,US
757,788,,"PO BOX 505",,WESTPORT,WA,98595,US
758,792,,"719 8TH ST",,HOQUIAM,WA,98550,US
759,791,,"2616 SUMNER AVE",,ABERDEEN,WA,98520,US
760,789,,"PO BOX 1918",,ELMA,WA,98541,US
761,790,,"100 W BROADWAY SUITE 2",,MONTESANO,WA,98563,US
762,796,,"2511 N OLYMPIC HWY SUITE 100",,SHELTON,WA,98584,US
763,793,,"PO BOX 400",,SHELTON,WA,98584,US
764,794,,"PO BOX 416",,BELFAIR,WA,98528,US
765,795,,"PO BOX 853",,SHELTON,WA,98584,US
766,797,,"307 E ROBERT BUSH DR",,"SOUTH BEND",WA,98586,US
767,798,,"116 1ST AVE S",,ILWACO,WA,98624,US
768,799,,"7013 SANDRIDGE RD",,"LONG BEACH",WA,98631,US
769,800,,"PO BOX 97",,"SOUTH BEND",WA,98586,US
770,801,,"415 W WISHKAH ST A1",,ABERDEEN,WA,98520,US
771,802,,"PO BOX 458",,SHELTON,WA,98584,US
772,803,,"PO BOX 2465",,OLYMPIA,WA,98507,US
773,804,,"820 PACIFIC AVE SUITE 201",,BREMERTON,WA,98337,US
774,805,,"3594 BYRON ST SUITE 102",,SILVERDALE,WA,98383,US
775,806,,"PO BOX 3434",,SEQUIM,WA,98382,US
776,807,,"PO BOX 87",,"SOUTH BEND",WA,98586,US
777,808,,"2601 PACIFIC AVE N",,"LONG BEACH",WA,98631,US
778,809,,"PO BOX 87",,"SOUTH BEND",WA,98586,US
779,810,,"PO BOX 429",,"LONG BEACH",WA,98631,US
780,811,,"415 W WISHKAH ST SUITE A2",,ABERDEEN,WA,98520,US
781,812,,"PO BOX 45610",,OLYMPIA,WA,98504,US
782,813,,"3501 NW LOWELL ST SUITE 201",,SILVERDALE,WA,98383,US
783,814,,"705 30TH ST",,HOQUIAM,WA,98550,US
784,815,,"216 N 2ND ST",,RAYMOND,WA,98577,US
785,816,,"PO DRAWER N",,ILWACO,WA,98624,US
786,817,,"PO BOX H",,ILWACO,WA,98624,US
787,818,,"PO BOX 188",,NASELLE,WA,98638,US
788,819,,"PO BOX 1016",,ABERDEEN,WA,98520,US
789,820,,"PO BOX 126",,SHELTON,WA,98584,US
790,821,,"PO BOX 2541",,BELFAIR,WA,98528,US
791,822,,"PO BOX 283",,"LONG BEACH",WA,98631,US
792,840,,"216 N G ST",,ABERDEEN,WA,98520,US
793,839,,"410 NORTH G ST",,ABERDEEN,WA,98520,US
794,838,,"300 N WILLIAMS",,ABERDEEN,WA,98520,US
795,837,,"100 E LINDSTROM ST",,ABERDEEN,WA,98520,US
796,836,,"1801 BAY AVE",,ABERDEEN,WA,98520,US
797,841,,"601 SCHOOL RD",,ABERDEEN,WA,98520,US
798,835,,"409 NORTH K ST",,ABERDEEN,WA,98520,US
799,834,,"1516 NORTH B ST",,ABERDEEN,WA,98520,US
800,833,,"301 S FARRAGUT ST",,ABERDEEN,WA,98520,US
801,831,,"1313 PACIFIC AVE",,ABERDEEN,WA,98520,US
802,832,,"410 NORTH G ST",,ABERDEEN,WA,98520,US
803,842,,"PO BOX 479",,COSMOPOLIS,WA,98537,US
804,844,,"1235 MONTEELMA RD",,ELMA,WA,98541,US
805,845,,"1235 MONTEELMA RD",,ELMA,WA,98541,US
806,846,,"1235 MONTEELMA ROAD",,ELMA,WA,98541,US
807,847,,"1235 MONTEELMA ROAD",,ELMA,WA,98541,US
808,843,,"705 WALDRIP ST",,ELMA,WA,98541,US
809,848,,"822 EAST MASON BENSON ROAD",,GRAPEVIEW,WA,98546,US
810,849,,"111 N STATE ROUTE 106",,SHELTON,WA,98584,US
811,850,,"305 SIMPSON AVENUE",,HOQUIAM,WA,98550,US
812,851,,"501 W EMERSON AVE",,HOQUIAM,WA,98550,US
813,852,,"200 SPENCER ST",,HOQUIAM,WA,98550,US
814,853,,"310 SIMPSON AVE",,HOQUIAM,WA,98550,US
815,854,,"700 WOOD AVE",,HOQUIAM,WA,98550,US
816,855,,"101 W EMERSON AVE",,HOQUIAM,WA,98550,US
817,856,,"305 Simpson Avenue",,Hoquiam,WA,98550,US
818,857,,"W 2987 MATLOCK BRADY RD",,ELMA,WA,98541,US
819,858,,"611 S MAIN ST",,MCCLEARY,WA,98557,US
820,862,,"302 N CHURCH ST",,MONTESANO,WA,98563,US
821,859,,"303 N CHURCH ST",,MONTESANO,WA,98563,US
822,860,,"302 N CHURCH ST",,MONTESANO,WA,98563,US
823,861,,"1717 BEACON AVE E",,MONTESANO,WA,98563,US
824,863,,"793 STATE ROUTE 4",,NASELLE,WA,98638,US
825,864,,"PO BOX 159",,"OCEAN SHORES",WA,98569,US
826,865,,"PO BOX 969",,"OCEAN CITY",WA,98569,US
827,866,,"300 MT OLYMPUS AVE",,"OCEAN SHORES",WA,98569,US
828,867,,"PO BOX H",,"PACIFIC BEACH",WA,98571,US
829,871,,"71 E CAMPUS DRIVE",,BELFAIR,WA,98528,US
830,870,,"22900 NE STATE ROUTE 3",,BELFAIR,WA,98528,US
831,868,,"791 NE SAND HILL RD",,BELFAIR,WA,98528,US
832,869,,"300 E CAMPUS DR",,BELFAIR,WA,98528,US
833,872,,"200 E CAMPUS DR",,BELFAIR,WA,98528,US
834,873,,"2867 NORTH RIVER RD",,COSMOPOLIS,WA,98537,US
835,874,,"PO BOX 778",,"LONG BEACH",WA,98631,US
836,875,,"PO BOX 758",,"LONG BEACH",WA,98631,US
837,876,,"PO BOX 1220",,"OCEAN PARK",WA,98640,US
838,877,,"PO BOX F",,ILWACO,WA,98624,US
839,879,,"2580 S MONTESANO ST",,WESTPORT,WA,98595,US
840,882,,"612 E AGATE RD",,SHELTON,WA,98584,US
841,881,,"110 E SPENCER LAKE RD",,SHELTON,WA,98584,US
842,880,,"611 E AGATE RD",,SHELTON,WA,98584,US
843,883,,"PO BOX 38",,"AMANDA PARK",WA,98526,US
844,884,,"1016 COMMERCIAL ST",,RAYMOND,WA,98577,US
845,885,,"921 COMMERICAL ST",,RAYMOND,WA,98577,US
846,892,,"700 S 1ST ST",,SHELTON,WA,98584,US
847,891,,"350 UNIVERSITY AVE",,SHELTON,WA,98584,US
848,890,,"900 W FRANKLIN ST",,SHELTON,WA,98584,US
849,886,,"534 EAST K ST",,SHELTON,WA,98584,US
850,889,,"800 EAST K ST",,SHELTON,WA,98584,US
851,893,,"3301 N SHELTON SPRINGS RD",,SHELTON,WA,98584,US
852,888,,"807 W PINE ST",,SHELTON,WA,98584,US
853,887,,"3737 N SHELTON SPRINGS RD",,SHELTON,WA,98584,US
854,894,,"PO BOX 437",,"SOUTH BEND",WA,98586,US
855,895,,"500 E 1ST ST",,"SOUTH BEND",WA,98586,US
856,896,,"PO BOX 437",,"SOUTH BEND",WA,98586,US
857,897,,"161 SE COLLIER ROAD",,SHELTON,WA,98584,US
858,898,,"PO BOX 249",,TAHOLAH,WA,98587,US
859,899,,"4640 WISHKAH ROAD",,ABERDEEN,WA,98520,US
860,901,,"PO BOX 128",,MENLO,WA,98561,US
861,900,,"PO BOX 128",,MENLO,WA,98561,US
862,902,,"PO BOX H",,OAKVILLE,WA,98568,US
863,903,,"PO BOX 96",,SATSOP,WA,98583,US
864,904,,"5002 KITSAP WAY LOWER LEVEL",,BREMERTON,WA,98312,US
865,905,,"1014 BAY ST SUITE 11",,"PORT ORCHARD",WA,98366,US
866,906,,"1340 LLOYD PARKWAY",,"PORT ORCHARD",WA,98367,US
867,908,,"9951 MICKELBERRY RD SUITE 101",,SILVERDALE,WA,98383,US
868,907,,"450 S KITSAP BLVD SUITE 230",,"PORT ORCHARD",WA,98366,US
869,909,,"PO BOX 3452",,SILVERDALE,WA,98383,US
870,911,,"PO Box 1446",,BREMERTON,WA,98337,US
871,910,,"920 PARK AVE",,BREMERTON,WA,98337,US
872,912,,"600 CLIFF ST",,"PORT TOWNSEND",WA,98368,US
873,913,,"902 E CAROLINE ST",,"PORT ANGELES",WA,98362,US
874,914,,"902 E CAROLINE ST",,"PORT ANGELES",WA,98362,US
875,919,,"1550 NE RIDDELL RD",,BREMERTON,WA,98310,US
876,918,,"19045 WA305 SUITE 140",,POULSBO,WA,98370,US
877,921,,"614 DIVISION ST",,"PORT ORCHARD",WA,98366,US
878,915,,"395 WINSLOW WAY NE",,"BAINBRIDGE ISLAND",WA,98110,US
879,917,,"3850 KITSAP WAY",,BREMERTON,WA,98312,US
880,916,,"PO BOX 805",,POULSBO,WA,98370,US
881,920,,"9080 SILVERDALE WAY SUITE 102",,SILVERDALE,WA,98383,US
882,922,,"228 W 1ST ST SUITE M",,"PORT ANGELES",WA,98362,US
883,923,,"421 5TH AVE",,FORKS,WA,98331,US
884,924,,"223 E 4TH ST SUITE 1",,"PORT ANGELES",WA,98362,US
885,925,,"PO BOX 4115",,SEQUIM,WA,98382,US
886,926,,"192681 HIGHWAY 101",,FORKS,WA,98331,US
887,928,,"2300 S PARK AVE",,"PORT TOWNSEND",WA,98368,US
888,927,,"PO BOX 563",,"PORT TOWNSEND",WA,98368,US
889,929,,"5610 Kitsap Way Suite 350",,Bremerton,WA,98312,US
890,930,,"240 W FRONT ST NO A",,"PORT ANGELES",WA,98362,US
891,931,,"PO BOX 1611",,POULSBO,WA,98370,US
892,932,,"PO BOX 1611",,POULSBO,WA,98370,US
893,933,,"823 COMMERCE LOOP",,"PORT TOWNSEND",WA,98368,US
894,934,,"823 COMMERCE LOOP",,"PORT TOWNSEND",WA,98368,US
895,935,,"845 8TH ST",,BREMERTON,WA,98337,US
896,936,,"PO BOX 1440",,ELMA,WA,98541,US
897,946,,"PO BOX 281",,QUILCENE,WA,98376,US
898,948,,"PO BOX 500",,TOKELAND,WA,98590,US
899,947,,"PO BOX 130",,TOKELAND,WA,98590,US
900,949,,"NO MAILING ADDRESS",,"PORT ANGELES",WA,98362,US
901,950,,"1780 LINCOLN AVE SE",,"PORT ORCHARD",WA,98366,US
902,951,,"845 8TH ST",,BREMERTON,WA,98337,US
903,952,,"845 8TH ST",,BREMERTON,WA,98337,US
904,953,,"3200 SE RAINSHADOW COURT",,"PORT ORCHARD",WA,98366,US
905,954,,"3513 NW ANDERSON HILL RD",,SILVERDALE,WA,98383,US
906,955,,"845 8TH ST",,BREMERTON,WA,98337,US
907,956,,"PO BOX 1391",,"PORT ANGELES",WA,98362,US
908,957,,"PO BOX 1850",,SHELTON,WA,98584,US
909,958,,"415 W WISHKAH ST SUITE 2C",,ABERDEEN,WA,98520,US
910,960,,"2601 PACIFIC AVE N",,"LONG BEACH",WA,98631,US
911,959,,"PO BOX 87",,"SOUTH BEND",WA,98586,US
912,961,,"4810 AUTO CENTER WAY SUITE Z",,BREMERTON,WA,98312,US
913,962,,"1207 CARVER ST",,BREMERTON,WA,98312,US
914,963,,"PO BOX 318",,SUQUAMISH,WA,98392,US
915,964,,"PO BOX 995",,"PORT ORCHARD",WA,98366,US
916,965,,"PO BOX 1945",,"PORT TOWNSEND",WA,98368,US
917,966,,"PO BOX 124",,ABERDEEN,WA,98520,US
918,967,,"PO BOX 2532",,FORKS,WA,98331,US
919,968,,"915 ANDERSON DR",,ABERDEEN,WA,98520,US
920,970,,"915 SHERIDAN ST SUITE 201",,"PORT TOWNSEND",WA,98368,US
921,971,,"915 SHERIDAN ST SUITE 201",,"PORT TOWNSEND",WA,98368,US
922,973,,"915 SHERIDAN ST STE 201",,"PORT TOWNSEND",WA,98368,US
923,974,,"203 W 1ST ST",,"PORT ANGELES",WA,98362,US
924,975,,"235 W 1ST ST",,"PORT ANGELES",WA,98362,US
925,977,,"201 W 1ST ST SUITE 2",,"PORT ANGELES",WA,98362,US
926,976,,"421 5TH AVE",,FORKS,WA,98331,US
927,978,,"203 W 1ST ST",,"PORT ANGELES",WA,98362,US
928,979,,"3423 6TH ST RM 110",,BREMERTON,WA,98312,US
929,980,,"4710 AUTO CENTER BLVD",,BREMERTON,WA,98312,US
930,981,,"3423 6TH AVE SUITE 217",,BREMERTON,WA,98312,US
931,982,,"3888 NW RANDALL WAY SUITE 201",,SILVERDALE,WA,98383,US
932,983,,"PO BOX 1127",,SHELTON,WA,98584,US
933,984,,"PO BOX 45456",,OLYMPIA,WA,98599,US
934,985,,"415 W WISHKAH ST SUITE 2A",,ABERDEEN,WA,98520,US
935,986,,"PO BOX 11699",,TACOMA,WA,98411,US
936,988,,"SOUTH BEND CSO DOCUMENTS",,OLYMPIA,WA,98504,US
937,987,,"PO BOX 8985",,VANCOUVER,WA,98668,US
938,989,,"18920 4TH AVE NE",,POULSBO,WA,98370,US
939,1018,,"5455 ALMIRA DR NE",,BREMERTON,WA,98311,US
940,1021,,"PO BOX 824",,BREMERTON,WA,98337,US
941,1022,,"18920 4TH AVE",,POULSBO,WA,98370,US
942,1025,,"205 6TH ST",,BREMERTON,WA,98337,US
943,1026,,"PO BOX 1795",,"PORT TOWNSEND",WA,98368,US
944,1034,,"PO BOX 4047",,"PORT ANGELES",WA,98363,US
945,1036,,"PO BOX 1440",,ELMA,WA,98541,US
946,1030,,"PO BOX 267",,"PORT HADLOCK",WA,98339,US
947,1033,,"PO BOX 2920",,SEQUIM,WA,98382,US
948,1031,,"22900 NE STATE ROUTE 3",,BELFAIR,WA,98528,US
949,1001,,"300 E CAMPUS DR",,BELFAIR,WA,98528,US
950,1002,,"PO BOX 890",,"OCEAN PARK",WA,98640,US
951,992,,"614 DIVISION ST MS NO 1",,BREMERTON,WA,98311,US
952,1004,,"3102 WHEATON WAY",,BREMERTON,WA,98310,US
953,1005,,"134 MARION AVE N",,BREMERTON,WA,98312,US
954,1006,,"209 W 11TH ST",,"PORT ANGELES",WA,98362,US
955,1015,,"PO BOX 1591",,SEQUIM,WA,98382,US
956,1007,,"10200 OLD OLYMPIC HIGHWAY",,SEQUIM,WA,98382,US
957,1000,,"169 E WASHINGTON ST",,SEQUIM,WA,98382,US
958,1008,,"81 CHIMICUM RD",,CHIMACUM,WA,98325,US
959,1009,,"1200 SOULE AVE",,HOQUIAM,WA,98550,US
960,1010,,"2109 SUMNER AVE",,ABERDEEN,WA,98520,US
961,1011,,"18920 4TH AVE NE",,POULSBO,WA,98370,US
962,1044,,"710 E MARKET ST",,ABERDEEN,WA,98520,US
963,1045,,"PO BOX 1497",,BREMERTON,WA,98337,US
964,1048,,"PO BOX 1497",,BREMERTON,WA,,US
965,1049,,"PO BOX 1497",,BREMERTON,WA,,US
966,1047,,"PO BOX 1497",,BREMERTON,WA,98337,US
967,1046,,"PO BOX 1497",,BREMERTON,WA,98337,US
968,1056,,"411 N 5TH ST",,SHELTON,WA,98584,US
969,1054,,"PO BOX 639",,SHELTON,WA,98584,US
970,1058,,"100 W PUBLIC WORKS DR",,SHELTON,WA,98584,US
971,1052,,"PO BOX 368",,SHELTON,WA,98584,US
972,1066,,"100 W BROADWAY AVE",,MONTESANO,WA,98563,US
973,1064,,"103 HAGARA ST",,ABERDEEN,WA,98520,US
974,1063,,"2109 SUMNER AVE",,ABERDEEN,WA,98520,US
975,1062,,"PO BOX 1129",,ELMA,WA,98541,US
976,1069,,"PO BOX 67",,"SOUTH BEND",WA,98586,US
977,1072,,"PO BOX 480",,ABERDEEN,WA,98520,US
978,1073,,"PO BOX 2148",,SHELTON,WA,98584,US
979,1075,,"PO BOX 472",,RAYMOND,WA,98577,US
980,1074,,"PO BOX 619",,"LONG BEACH",WA,98631,US
981,1076,,"11900 CENTER RD",,QUILCENE,WA,98376,US
982,1078,,"PO BOX 1419",,"OCEAN SHORES",WA,98569,US
983,1077,,"PO BOX 1419",,"OCEAN SHORES",WA,98569,US
984,1079,,"175 Wilson Rd",,Winlock,WA,98596,US
985,1080,,"PO BOX 907",,"OCEAN PARK",WA,98640,US
986,1085,,"10 SE SQUAXIN LANE",,SHELTON,WA,98584,US
987,1101,,"508 8TH ST",,HOQUIAM,WA,98550,US
988,1102,,"228 W 1ST ST SUITE N",,"PORT ANGELES",WA,98362,US
989,1104,,"5126 E BROCKDALE RD",,SHELTON,WA,98584,US
990,1106,,"PO BOX 10811",,"BAINBRIDGE ISLAND",WA,98110,US
991,1105,,"PO BOX 10811",,"BAINBRIDGE ISLAND",WA,98110,US
992,1107,,"PO BOX 3697",,SEQUIM,WA,98382,US
993,1108,,"3101 CHERRY ST",,HOQUIAM,WA,98550,US
994,1109,,"324 Jackson St",,Raymond,WA,98577,US
995,1110,,"PO BOX 367",,ILWACO,WA,98624,US
996,1111,,"298 BATTERY WAY",,"PORT TOWNSEND",WA,98368,US
997,1112,,"PO BOX 1400",,SILVERDALE,WA,98383,US
998,1113,,"1213 BAY ST",,"PORT ORCHARD",WA,98366,US
999,1114,,"PO BOX 633",,"PORT ANGELES",WA,98362,US
1000,1115,,"4841 AUTO CENTER WAY SUITE 201",,BREMERTON,WA,98312,US
1001,1116,,"511 W HERON ST",,ABERDEEN,WA,98520,US
1002,1118,,"PO BOX 392",,RAYMOND,WA,98577,US
1003,1117,,"PO BOX 876",,"LONG BEACH",WA,98631,US
1004,1119,,"1900 AUSTIN DR",,BREMERTON,WA,98312,US
1005,1120,,"PO BOX 1114",,"PORT ANGELES",WA,98362,US
1006,1121,,"900 OLYMPIC AVE",,BREMERTON,WA,98312,US
1007,1122,,"2288 FIRCREST DR SE",,"PORT ORCHARD",WA,98366,US
1008,1124,,"3102 WHEATON WAY",,BREMERTON,WA,98310,US
1009,1125,,"8521 MADISON AVE NE",,"BAINBRIDGE ISLAND",WA,98110,US
1010,1126,,"PO BOX 203",,ABERDEEN,WA,98520,US
1011,1127,,"221 W RAILROAD AVE SUITE 10",,SHELTON,WA,98584,US
1012,1128,,"PO BOX 2052",,BELFAIR,WA,98528,US
1013,1129,,"2500 SIMPSON AVE",,HOQUIAM,WA,98550,US
1014,1130,,"PO BOX 1794",,ABERDEEN,WA,98520,US
1015,1131,,"PO BOX 597",,"SOUTH BEND",WA,98586,US
1016,1132,,"PO BOX 165",,BREMERTON,WA,98337,US
1017,1133,,"218 N BROADWAY ST SUITE 1",,ABERDEEN,WA,98520,US
1018,1134,,"PO BOX 209",,SHELTON,WA,98584,US
1019,1135,,"PO BOX 1845",,ABERDEEN,WA,98520,US
1020,1137,,"1904 3RD AVE SUITE 918",,SEATTLE,WA,98101,US
1021,1138,,"1904 3RD AVE SUITE 918",,SEATTLE,WA,98101,US
1022,1139,,"PO BOX 1331",,BELFAIR,WA,98528,US
1023,1140,,"PO BOX 1445",,BELFAIR,WA,98528,US
1024,1141,,"PO BOX 160",,BELFAIR,WA,98528,US
1025,1143,,"4537 JULI CT SE",,OLYMPIA,WA,98501,US
1026,1144,,"4537 JULI CT SE",,OLYMPIA,WA,98501,US
1027,1142,,"4537 JULI CT SE",,OLYMPIA,WA,98501,US
1028,1147,,"1201 Park Ave",,Bremerton,WA,98337,US
1029,1148,,"3200 SE Rainshadow Court",,"Port Orchard",WA,98366,US
1030,1146,,"PO Box 1517",,Poulsbo,WA,98370,US
1031,1145,,"837 4th Street",,Bremerton,WA,98337,US
1032,1149,,"3201 PINE RD NE",,BREMERTON,WA,98310,US
1033,1150,,"2510 SNOW CREEK RD",,QUILCENE,WA,98376,US
1034,1151,,"8987 MCCONNELL AVE NW",,SILVERDALE,WA,98383,US
1035,1152,,"317 E SPRUCE ST",,MONTESANO,WA,98563,US
1036,1153,,"317 E SPRUCE ST",,MONTESANO,WA,98563,US
1037,1154,,"PO BOX 478",,"PORT ANGELES",WA,98362,US
1038,1155,,"PO BOX 616",,WESTPORT,WA,98595,US
1039,1156,,"PO BOX 4326",,BREMERTON,WA,98312,US
1040,1157,,"PO BOX 2142",,BELFAIR,WA,98528,US
1041,1159,,"31912 LITTLE BOSTON NE",,KINGSTON,WA,98346,US
1042,1169,,"PO BOX 334",,"PORT TOWNSEND",WA,98368,US
1043,1170,,"PO BOX 3018",,ELMA,WA,98541,US
1044,1172,,"PO BOX 2047",,SILVERDALE,WA,98383,US
1045,1173,,"PO BOX 1497",,BREMERTON,WA,98337,US
1046,1171,,"1137 CALLOW AVE N",,BREMERTON,WA,98312,US
1047,1176,,"4846 AUTO CENTER WAY",,BREMERTON,WA,98312,US
1048,1177,,"PO BOX 294",,SEQUIM,WA,98382,US
1049,1178,,"PO BOX 294",,SEQUIM,WA,98382,US
1050,1179,,"PO BOX 20",,JOYCE,WA,98343,US
1051,1180,,"310 FOUR CORNERS RD",,"PORT HADLOCK",WA,98365,US
1052,1181,,"110 E 7TH ST",,"PORT ANGELES",WA,98362,US
1053,1182,,"PO BOX 1576",,SHELTON,WA,98584,US
1054,1183,,"680 W WASHINGTON ST SUITE E106",,SEQUIM,WA,98382,US
1055,1184,,"228 W 1ST ST SUITE L",,"PORT ANGELES",WA,98362,US
1056,1185,,"645 N 5th Ave",,Sequim,WA,98382,US
1057,1186,,"PO BOX 1858",,BELFAIR,WA,98528,US
1058,1187,,"5050 HIGHWAY 303",,BREMERTON,WA,98311,US
1059,1188,,"PO BOX 3034",,ELMA,WA,98541,US
1060,1189,,"9692 LEVIN RD NW SUITE 202",,SILVERDALE,WA,98383,US
1061,1190,,"730 ERICKSEN AVE NE SUITE 200",,"BAINBRIDGE ISLAND",WA,98110,US
1062,1191,,"1590 WOODRIDGE DR SE",,"PORT ORCHARD",WA,98366,US
1063,1192,,"9633 LEVIN ROAD NW SUITE 206",,SILVERDALE,WA,98383,US
1064,1193,,"9633 LEVIN ROAD NW SUITE 206",,SILVERDALE,WA,98383,US
1065,1194,,"950 OAK ST",,ABERDEEN,WA,98520,US
1066,1195,,"800 W 1ST ST",,ABERDEEN,WA,98520,US
1067,1196,,"1616 SE ELLIS COURT SUITE 290",,"PORT ORCHARD",WA,98367,US
1068,1197,,"2916 NW BUCKLIN HILL RD NO 110",,SILVERDALE,WA,98383,US
1069,1198,,"PO BOX 271",,ABERDEEN,WA,98520,US
1070,1199,,"1513 6TH ST",,BREMERTON,WA,98337,US
1071,1200,,"PO BOX 1072",,"PORT ORCHARD",WA,98366,US
1072,1201,,"7650 OAK BAY RD",,"PORT LUDLOW",WA,98365,US
1073,1202,,"7650 OAK BAY RD",,"PORT LUDLOW",WA,98365,US
1074,1203,,"7650 OAK BAY RD",,"PORT LUDLOW",WA,98365,US
1075,1204,,"PO BOX 42",,BRINNON,WA,98320,US
1076,1205,,"PO BOX 42",,BRINNON,WA,98320,US
1077,1208,,"70 HERBERT ST",,QUILCENE,WA,98376,US
1078,1206,,"70 HERBERT ST",,QUILCENE,WA,98376,US
1079,1207,,"70 HERBERT ST",,QUILCENE,WA,98376,US
1080,1209,,"1605 E FRONT ST SUITE C",,"PORT ANGELES",WA,98362,US
1081,1210,,"415 W WISHKAH ST SUITE 1C",,ABERDEEN,WA,98520,US
1082,1217,,"7666 NE HIGH SCHOOL ROAD",,"BAINBRIDGE ISLAND",WA,98110,US
1083,1213,,"7666 NE HIGH SCHOOL ROAD",,"BAINBRIDGE ISLAND",WA,98110,US
1084,1216,,"7666 NE HIGH SCHOOL ROAD",,"BAINBRIDGE ISLAND",WA,98110,US
1085,1219,,"7666 NE HIGH SCHOOL ROAD",,"BAINBRIDGE ISLAND",WA,98110,US
1086,1220,,"PO BOX 616",,HOQUIAM,WA,98550,US
1087,1221,,"PO BOX 616",,HOQUIAM,WA,98550,US
1088,1222,,"PO BOX 616",,HOQUIAM,WA,98550,US
1089,1224,,"PO BOX 368",,"BAY CENTER",WA,98527,US
1090,1236,,"911 NE LIBERTY ROAD",,POULSBO,WA,98370,US
1091,1240,,"8895 MADISON AVE N",,"BAINBRIDGE ISLAND",WA,98110,US
1092,1241,,"7934 NE BUCKLIN HILL RD",,"BAINBRIDGE ISLAND",WA,98110,US
1093,1242,,"12985 NE PHELPS RD",,"BAINBRIDGE ISLAND",WA,98110,US
1094,1243,,"1301 SYLVAN WAY",,BREMERTON,WA,98310,US
1095,1244,,"1270 MADISON AVE N",,"BAINBRIDGE ISLAND",WA,98110,US
1096,1245,,"612 5TH ST",,BREMERTON,WA,98337,US
1097,1233,,"11212 NE STATE HWY 104",,KINGSTON,WA,98346,US
1098,1239,,"31912 LITTLE BOSTON RD NE",,KINGSTON,WA,98346,US
1099,1237,,"PO BOX 128",,MANCHESTER,WA,98353,US
1100,1226,,"87 SIDNEY AVE",,"PORT ORCHARD",WA,98366,US
1101,1227,,"700 NE LINCOLN ST",,POULSBO,WA,98370,US
1102,1228,,"3450 NW CARLTON ST",,SILVERDALE,WA,98383,US
1103,1229,,"19917 7TH AVE NE SUITE 205",,POULSBO,WA,98370,US
1104,1230,,"320 S KITSAP BLVD",,"PORT ORCHARD",WA,98366,US
1105,1231,,"PO BOX 960",,BREMERTON,WA,98337,US
1106,1235,,"PO BOX 960",,BREMERTON,WA,98337,US
1107,1232,,"PO BOX 127",,POULSBO,WA,98370,US
1108,1225,,"1140 NIPSIC AVE",,BREMERTON,WA,98310,US
1109,1246,,"PO BOX 536",,OAKVILLE,WA,98568,US
1110,1247,,"PO BOX 570",,OAKVILLE,WA,98568,US
1111,1248,,"PO BOX 536",,OAKVILLE,WA,98568,US
1112,1249,,"PO BOX 314",,OAKVILLE,WA,98568,US
1113,1250,,"PO BOX 4167",,SEQUIM,WA,98382,US
1114,1251,,"2620 S FRANCIS ST",,"PORT ANGELES",WA,98362,US
